,name,address,borough,source,validated_address
0,United Fried Chicken & Pizza,"567 Lenox Avenue, New York, NY",Manhattan,Zabiha,"567 Malcolm X Blvd, New York, NY 10037, USA"
1,Junoon,"27 West 24th Street, New York, NY",Manhattan,Zabiha,"27 W 24th St, New York, NY 10010, USA"
2,Ambizza Café Truck,"Water Street & Old Slip, New York, NY",Manhattan,Zabiha,"10 S Water St, Sapulpa, OK 74066, USA"
3,Falafel on Broadway,"3151 Broadway, New York, NY",Manhattan,Zabiha,"3151 Broadway, New York, NY 10027, USA"
4,Malai Marke,"318 East 6th Street, Newrk, NY",Manhattan,Zabiha,"318 E 6th St, New York, NY 10003, USA"
5,Moustache Pitza,"265 East 10th Street, New York, NY",Manhattan,Zabiha,"265 E 10th St, New York, NY 10009, USA"
6,Bawarchi,"1546 Madison Avenue, New York, NY",Manhattan,Zabiha,"1546 Madison Ave, New York, NY 10029, USA"
7,Kopi Kopi,"68 West 3rd Street, New York, NY",Manhattan,Zabiha,"68 W 3rd St, New York, NY 10012, USA"
8,The Halal Guys,"307 East 14th Street, New York, NY",Manhattan,Zabiha,"307 E 14th St, New York, NY 10003, USA"
9,Simit Sarayi,"435 5th Avenue, New York, NY",Manhattan,Zabiha,"435 5th Ave, New York, NY 10016, USA"
10,Awadh,"2588 Broadway, New York, NY",Manhattan,Zabiha,"2588 Broadway, New York, NY 10025, USA"
11,Tallgrass Burger,"214 1st Avenue, New York, NY",Manhattan,Zabiha,"214 1st Avenue, New York, NY 10009, USA"
12,Ravagh Persian Grill,"125 1st Avenue, New York, NY",Manhattan,Zabiha,"125 1st Avenue, New York, NY 10003, USA"
13,Atomic Wings,"184 1st Avenue, New York, NY",Manhattan,Zabiha,"184 1st Avenue, New York, NY 10009, USA"
14,Deccan Spice,"120 Lexington Avenue, New York, NY",Manhattan,Zabiha,"120 Lexington Ave, New York, NY 10016, USA"
15,Dera,"103 Lexington Avenue, New York, NY",Manhattan,Zabiha,"103 Lexington Ave, New York, NY 10016, USA"
16,Turkuaz,"255 West 55th Street, New York, NY",Manhattan,Zabiha,"255 W 55th St, New York, NY 10019, USA"
17,Farah Anatolia,"401 East 62nd Street, New York, NY",Manhattan,Zabiha,"401 E 62nd St, New York, NY 10065, USA"
18,Farida,"498 9th Avenue, New York, NY",Manhattan,Zabiha,"498 9th Ave, New York, NY 10018, USA"
19,Holy Cow,"15 West 29th Street, New York, NY",Manhattan,Zabiha,"15 W 29th St, New York, NY 10001, USA"
20,NY Gyro Xpress,"154 8th Avenue, New York, NY",Manhattan,Zabiha,"154 8th Ave, New York, NY 10011, USA"
21,Les Ambassades,"2200 Frederick Douglass Blvd., New York, NY",Manhattan,Zabiha,"2200 Frederick Douglass Blvd, New York, NY 10026, USA"
22,Manhattan Halal Restaurant,"156 West 29th Street, New York, NY",Manhattan,Zabiha,"156 W 29th St, New York, NY 10001, USA"
23,Zeytin Mediterranean,"160 Pearl Street, New York, NY",Manhattan,Zabiha,"160 Pearl St, New York, NY 10005, USA"
24,Aleef Café,"333 West 39th Street, New York, NY",Manhattan,Zabiha,"333 W 39th St, New York, NY 10018, USA"
25,Rasa,"25 West 8th Street, New York, NY",Manhattan,Zabiha,"25 W 8th St, New York, NY 10011, USA"
26,Afghan Kabob Express,"6th Avenue & West 55th Street, New York, NY",Manhattan,Zabiha,"6th Ave, New York, NY, USA"
27,Turkuaz,"310 West 53rd Street, New York, NY",Manhattan,Zabiha,"310 W 53rd St, New York, NY 10019, USA"
28,Shahi Biryani & Grill,"71 West 109th Street, New York, NY",Manhattan,Zabiha,"71 W 109th St, New York, NY 10025, USA"
29,Turco Mediterranean Grill,"604 9th Avenue, New York, NY",Manhattan,Zabiha,"604 9th Ave, New York, NY 10036, USA"
30,Ravagh Persian Grill,"11 East 30th Street, New York, NY",Manhattan,Zabiha,"11 E 30th St, New York, NY 10016, USA"
31,Pars Grill House & Bar,"249 West 26th Street, New York, NY",Manhattan,Zabiha,"249 W 26th St, New York, NY 10001, USA"
32,Africa Kiné,"256 West 116th Street, New York, NY",Manhattan,Zabiha,"256 W 116th St, New York, NY 10026, USA"
33,Keur Sokhna,"2249 Adam Clayton Powell Jr. Blvd., New York, NY",Manhattan,Zabiha,"2249 Adam Clayton Powell Jr Blvd, New York, NY 10027, USA"
34,Lasani,"14 West 29th Street, New York, NY",Manhattan,Zabiha,"14 W 29th St, New York, NY 10001, USA"
35,Pizza & Pita,"344 East 34th Street, New York, NY",Manhattan,Zabiha,"344 E 34th St, New York, NY 10016, USA"
36,Halal Cart,"Beach Street & Greenwich Street, New York, NY",Manhattan,Zabiha,"2818 N Beach St, Haltom City, TX 76117, USA"
37,Ali Baba's Turkish Cuisine,"862 2nd Avenue, New York, NY",Manhattan,Zabiha,"862 2nd Ave, New York, NY 10017, USA"
38,Ariana,"787 9th Avenue, New York, NY",Manhattan,Zabiha,"787 9th Ave, New York, NY 10019, USA"
39,Smokey Burger Organic,"339 West 44th Street, New York, NY",Manhattan,Zabiha,"339 W 44th St, New York, NY 10036, USA"
40,Patiala,"371 West 34th Street, New York, NY",Manhattan,Zabiha,"371 W 34th St, New York, NY 10001, USA"
41,Afghan Kebab House #2,"1345 Second Avenue, New York, NY",Manhattan,Zabiha,"1345 2nd Ave, New York, NY 10021, USA"
42,BURGERS by Honest Chops,"99 Macdougal Street, New York, NY",Manhattan,Zabiha,"99 MacDougal St, New York, NY 10012, USA"
43,Joy,"148 East 46th Street, New York, NY",Manhattan,Zabiha,"148 E 46th St, New York, NY 10017, USA"
44,ABA Turkish Restaurant,"325 West 57th Street, New York, NY",Manhattan,Zabiha,"325 W 57th St, New York, NY 10019, USA"
45,The Halal Guys,"6th Avenue & West 53rd Street, New York, NY",Manhattan,Zabiha,"6th Ave, New York, NY, USA"
46,Wall Street Halal Truck Guy,"Wall Street, New York, NY",Manhattan,Zabiha,"Wall St, New York, NY, USA"
47,Gyro Guy,"West 49th Street and 6th Avenue, New York, NY",Manhattan,Zabiha,"6th Ave & W 49th St, New York, NY 10112, USA"
48,Halal Cart,"28th Avenue and Madison, New York, NY",Manhattan,Zabiha,"Madison Ave & E 28th St, New York, NY 10016, USA"
49,Halal Cart Guy,"Park Place & Greenwich Street, New York, NY",Manhattan,Zabiha,"4800 S Darlington Ave, Tulsa, OK 74135, USA"
50,Aamir Halal Food Cart,"85 West 46th Street, New York, NY",Manhattan,Zabiha,"85 W 46th St, New York, NY 10036, USA"
51,Ravagh Persian Grill,"1135 1st Avenue, New York, NY",Manhattan,Zabiha,"1135 1st Avenue, New York, NY 10065, USA"
52,Baba Ghanouge,"165 Church Street, New York, NY",Manhattan,Zabiha,"165 Church St, New York, NY 10007, USA"
53,Masala Times,"194 Bleecker Street, New York, NY",Manhattan,Zabiha,"194 Bleecker St, New York, NY 10012, USA"
54,Istanbul Kebab House,"712 9th Avenue, New York, NY",Manhattan,Zabiha,"712 9th Ave, New York, NY 10019, USA"
55,48th & 6th Halal Cart,"6th Avenue & West 48th Street, New York, NY",Manhattan,Zabiha,"6th Ave, New York, NY, USA"
56,Agora,"1565 2nd Avenue, New York, NY",Manhattan,Zabiha,"1565 2nd Ave, New York, NY 10028, USA"
57,Joy Curry & Tandoor,"32 West 39th Street, New York, NY",Manhattan,Zabiha,"32 W 39th St, New York, NY 10018, USA"
58,Shendey's Halal Cart,"52th Street at 6th Avenue, New York, NY",Manhattan,Zabiha,"6th Ave & W 52nd St, New York, NY 10019, USA"
59,Kennedy Fried Chicken,"536 East 14th Street, New York, NY",Manhattan,Zabiha,"536 E 14th St, New York, NY 10009, USA"
60,Platter,"52nd Street & 6th Avenue, New York, NY",Manhattan,Zabiha,"1002 S 52nd St, Rogers, AR 72758, USA"
61,Prince of Egypt Cart,"47th Street at 6th Avenue, New York, NY",Manhattan,Zabiha,"6th Ave & W 47th St, New York, NY 10036, USA"
62,Sip Sak,"928 2nd Avenue, New York, NY",Manhattan,Zabiha,"928 2nd Ave, New York, NY 10022, USA"
63,Gyro Stand,"46th Street and 3rd Avenue, New York, NY",Manhattan,Zabiha,"E 46th St & 3rd Ave, New York, NY 10017, USA"
64,Swagat,"205 West 29th Street, New York, NY",Manhattan,Zabiha,"205 W 29th St, New York, NY 10001, USA"
65,Tandoor Palace,"88 Fulton Street, New York, NY",Manhattan,Zabiha,"88 Fulton St, New York, NY 10038, USA"
66,Kennedy Fried Chicken,"158 Nagle Avenue, New York, NY",Manhattan,Zabiha,"158 Nagle Ave, New York, NY 10040, USA"
67,Tagine,"221 West 38th Street, New York, NY",Manhattan,Zabiha,"221 W 38th St, New York, NY 10018, USA"
68,Haveli,"100 Second Avenue, New York, NY",Manhattan,Zabiha,"100 2nd Ave, New York, NY 10003, USA"
69,Djerdan Burak,"22-83 East 65th Street, New York, NY",Manhattan,Zabiha,"22 E 65th St, New York, NY 10065, USA"
70,Express Power Lunch Halal Food Cart,"3rd Avenue & E 48th Street, New York, NY",Manhattan,Zabiha,"3rd Ave, The Bronx, NY, USA"
71,Xpress Energy Halal Food Cart,"Whitehall Street & Stone Street, New York, NY",Manhattan,Zabiha,"Whitehall St, New York, NY 10004, USA"
72,Big Boss Halal Chicken and Rice,"York Avenue & East 69th Street, New York, NY",Manhattan,Zabiha,"York Ave, New York, NY, USA"
73,Hooda's Halal Food,"West 115th St & Broadway, New York, NY",Manhattan,Zabiha,"W 115th St, New York, NY, USA"
74,Little Gujrat Deli,"946 Columbus Avenue, New York, NY",Manhattan,Zabiha,"946 Columbus Ave, New York, NY 10025, USA"
75,Halal Food Cart,"Avenue of the Americas & West 47th Street, New York, NY",Manhattan,Zabiha,"6th Ave, New York, NY, USA"
76,Halal Food Cart,"5th Avenue & East 34th Street, New York, NY",Manhattan,Zabiha,"5th Ave, New York, NY, USA"
77,Uskudar,"1405 2nd Avenue, New York, NY",Manhattan,Zabiha,"1405 2nd Ave, New York, NY 10021, USA"
78,Mouez Halal Food Cart,"East 33rd Street & 1st Avenue, New York, NY",Manhattan,Zabiha,"E 33rd St, New York, NY 10016, USA"
79,A La Turka,"1417 2nd Avenue, New York, NY",Manhattan,Zabiha,"1417 2nd Ave, New York, NY 10021, USA"
80,Fahima Halal Food Cart,"6th Avenue & West 45th Street, New York, NY",Manhattan,Zabiha,"6th Ave, New York, NY, USA"
81,Le Baobab,"120 West 116th Street, New York, NY",Manhattan,Zabiha,"120 W 116th St, New York, NY 10026, USA"
82,Gourmet Palace,"13 West 29th Street, New York, NY",Manhattan,Zabiha,"13 W 29th St, New York, NY 10001, USA"
83,Penn Station Halal Cart,"West 33rd Street & 7th Avenue, New York, NY",Manhattan,Zabiha,"33rd Street, New York, NY 10001, USA"
84,Kebab & Curry In A Hurry,"2409 2nd Avenue, New York, NY",Manhattan,Zabiha,"2409 2nd Ave, New York, NY 10035, USA"
85,Casablanca Grill,"1132 1st Avenue, New York, NY",Manhattan,Zabiha,"1132 1st Avenue, New York, NY 10065, USA"
86,The Halal Guys,"East 14th Street & 2nd Avenue, New York, NY",Manhattan,Zabiha,"E 14th St, New York, NY, USA"
87,Chote Nawab,"115 Lexington Avenue, New York, NY",Manhattan,Zabiha,"115 Lexington Ave, New York, NY 10016, USA"
88,Dhaba,"108 Lexington Avenue, New York, NY",Manhattan,Zabiha,"108 Lexington Ave, New York, NY 10016, USA"
89,Kharian Deli,"184 7th Avenue, New York, NY",Manhattan,Zabiha,"184 7th Ave, New York, NY 10011, USA"
90,Indian Fast Food,"123 MacDougal Street, New York, NY",Manhattan,Zabiha,"123 MacDougal St, New York, NY 10012, USA"
91,Casa La Femme,"140 Charles Street, New York, NY",Manhattan,Zabiha,"140 Charles St, New York, NY 10014, USA"
92,Chola,"232 East 58th Street, New York, NY",Manhattan,Zabiha,"232 E 58th St, New York, NY 10022, USA"
93,Ilili,"236 5th Avenue, New York, NY",Manhattan,Zabiha,"236 5th Ave, New York, NY 10001, USA"
94,Aangan,"2701 Broadway, New York, NY",Manhattan,Zabiha,"2701 Broadway, New York, NY 10025, USA"
95,Brick Lane Curry House,"1664 3rd Avenue, New York, NY",Manhattan,Zabiha,"1664 3rd Ave, New York, NY 10128, USA"
96,Little Rascal,"163 Elizabeth Street, New York, NY",Manhattan,Zabiha,"163 Elizabeth St, New York, NY 10012, USA"
97,Naya Mezze & Grill,"1057 2nd Avenue, New York, NY",Manhattan,Zabiha,"1057 2nd Ave, New York, NY 10022, USA"
98,B&B,"165 West 26th Street, New York, NY",Manhattan,Zabiha,"Chelsea U, 165 W 26th St, New York, NY 10001, USA"
99,Bombay's,"60 Pearl Street, New York, NY",Manhattan,Zabiha,"60 Pearl St, New York, NY 10004, USA"
100,Jerusalem Restaurant,"2715 Broadway, New York, NY",Manhattan,Zabiha,"2715 Broadway, New York, NY 10025, USA"
101,Kennedy Fried Chicken,"1270 Saint Nicholas Avenue, New York, NY",Manhattan,Zabiha,"1270 St Nicholas Ave, New York, NY 10033, USA"
102,Kennedy Chicken & Sandwiches,"3789 Broadway, New York, NY",Manhattan,Zabiha,"3789 Broadway, New York, NY 10032, USA"
103,Pause Café,"3 Clinton Street, New York, NY",Manhattan,Zabiha,"3 Clinton St, Brooklyn, NY 11201, USA"
104,Zerza Moroccan Home Cooking,"320 East 6th Street, New York, NY",Manhattan,Zabiha,"320 E 6th St, New York, NY 10003, USA"
105,Arabesque,"4 East 36th Street, New York, NY",Manhattan,Zabiha,"4 E 36th St, New York, NY 10016, USA"
106,Sahara's,"513 2nd Avenue, New York, NY",Manhattan,Zabiha,"513 2nd Ave, New York, NY 10016, USA"
107,Milon,"93 1st Avenue, New York, NY",Manhattan,Zabiha,"93 1st Avenue, New York, NY 10009, USA"
108,Lincoln Fried Chicken,"576 West 125th Street, New York, NY",Manhattan,Zabiha,"576 W 125th St, New York, NY 10027, USA"
109,Kati Roll Company,"128 2nd Avenue, New York, NY",Manhattan,Zabiha,"128 2nd Ave, New York, NY 10003, USA"
110,Kati Roll Company,"685 3rd Avenue, New York, NY",Manhattan,Zabiha,"685 3rd Ave, New York, NY 10017, USA"
111,Hayaty,"103 Avenue A, New York, NY",Manhattan,Zabiha,"103 Avenue A, New York, NY 10009, USA"
112,Le Rêve Restaurant & Lounge,"125 East 54th Street, New York, NY",Manhattan,Zabiha,"125 E 54th St, New York, NY 10022, USA"
113,Moustache Pitza,"90 Bedford Street, New York, NY",Manhattan,Zabiha,"90 Bedford St, New York, NY 10014, USA"
114,Le Souk,"510 LaGuardia Place, New York, NY",Manhattan,Zabiha,"510 LaGuardia Pl, New York, NY 10012, USA"
115,Taste of Persia,"12 West 18th Street, New York, NY",Manhattan,Zabiha,"12 W 18th St, New York, NY 10011, USA"
116,Pasha,"70 West 71st Street, New York, NY",Manhattan,Zabiha,"70 W 71st St, New York, NY 10023, USA"
117,Balade,"208 1st Avenue, New York, NY",Manhattan,Zabiha,"208 1st Avenue, New York, NY 10009, USA"
118,Andaz,"1378 1st Avenue, New York, NY",Manhattan,Zabiha,"1378 1st Avenue, New York, NY 10021, USA"
119,La Nomade,"2795 8th Avenue, New York, NY",Manhattan,Zabiha,"2795 Frederick Douglass Blvd, New York, NY 10039, USA"
120,Sheezan,"183 Church Street, New York, NY",Manhattan,Zabiha,"183 Church St, New York, NY 10007, USA"
121,Shawarma Doner House,"70 West 39th Street, New York, NY",Manhattan,Zabiha,"70 W 39th St, New York, NY 10018, USA"
122,Utsav,"1185 Avenue of the Americas, New York, NY",Manhattan,Zabiha,"1185 6th Ave, New York, NY 10036, USA"
123,Bombay Duck Co.,"190 Bleecker Street, New York, NY",Manhattan,Zabiha,"190 Bleecker St, New York, NY 10012, USA"
124,Moti Mahal Delux,"1149 1st Avenue, New York, NY",Manhattan,Zabiha,"1149 1st Avenue, New York, NY 10065, USA"
125,Mirch Masala,"95 Macdougal Street, New York, NY",Manhattan,Zabiha,"95 MacDougal St, New York, NY 10012, USA"
126,Semsom Eatery,"2 Astor Place, New York, NY",Manhattan,Zabiha,"2 Astor Pl, New York, NY 10003, USA"
127,Halaal Food Cart,"302 West 37th Street, New York, NY",Manhattan,Zabiha,"302 W 37th St, New York, NY 10018, USA"
128,Café Fresco,"205 East 60th Street, New York, NY",Manhattan,Zabiha,"205 E 60th St, New York, NY 10022, USA"
129,Manousheh,"193 Bleecker Street, New York, NY",Manhattan,Zabiha,"193 Bleecker St, New York, NY 10012, USA"
130,Texas Chicken & Burgers,"3486 Broadway, New York, NY",Manhattan,Zabiha,"3486 Broadway, New York, NY 10031, USA"
131,Texas Chicken & Burgers,"471 Lenox Avenue, New York, NY",Manhattan,Zabiha,"471 Malcolm X Blvd, New York, NY 10030, USA"
132,Texas Chicken & Burgers,"151 East 103rd Street, New York, NY",Manhattan,Zabiha,"151 E 103rd St, New York, NY 10029, USA"
133,Texas Chicken & Burgers,"2144 Frederick Douglass Blvd., New York, NY",Manhattan,Zabiha,"2144 Frederick Douglass Blvd, New York, NY 10026, USA"
134,Alachi Masala,"488 Amsterdam Avenue, New York, NY",Manhattan,Zabiha,"488 Amsterdam Ave, New York, NY 10024, USA"
135,Persepolis,"1407 2nd Avenue, New York, NY",Manhattan,Zabiha,"1407 2nd Ave, New York, NY 10021, USA"
136,Spice Symphony,"182 Lexington Avenue, New York, NY",Manhattan,Zabiha,"Lexington Plaza, 182 Lexington Ave, New York, NY 10016, USA"
137,Desi Galli,"101 Lexington Avenue, New York, NY",Manhattan,Zabiha,"101 Lexington Ave, New York, NY 10016, USA"
138,indikitch,"25 West 23rd Street, New York, NY",Manhattan,Zabiha,"25 W 23rd St, New York, NY 10010, USA"
139,indikitch,"940 8th Avenue, New York, NY",Manhattan,Zabiha,"940 8th Ave, New York, NY 10019, USA"
140,Akdeniz,"19 West 46th Street, New York, NY",Manhattan,Zabiha,"19 W 46th St, New York, NY 10036, USA"
141,Kabab Bites,"369 Broome Street, New York, NY",Manhattan,Zabiha,"369 Broome St, New York, NY 10013, USA"
142,Souk & Sandwich,"117 6th Avenue, New York, NY",Manhattan,Zabiha,"117 6th Ave, New York, NY 10013, USA"
143,Indian Project,"243 West 38th Street, New York, NY",Manhattan,Zabiha,"243 W 38th St, New York, NY 10018, USA"
144,Balade Your Way,"144 West 37th Street, New York, NY",Manhattan,Zabiha,"144 W 37th St, New York, NY 10018, USA"
145,City Spice Café,"203 East 26th Street, New York, NY",Manhattan,Zabiha,"203 E 26th St, New York, NY 10010, USA"
146,Cava Grill,"143 4th Avenue, New York, NY",Manhattan,Zabiha,"143 4th Ave, New York, NY 10003, USA"
147,Fogo de Chão,"40 West 53rd Street, New York, NY",Manhattan,Zabiha,"40 W 53rd St, New York, NY 10019, USA"
148,Galata,"212 East 34th Street, New York, NY",Manhattan,Zabiha,"212 E 34th St, New York, NY 10016, USA"
149,Village Fried Chicken,"1739 Amsterdam Avenue, New York, NY",Manhattan,Zabiha,"1739 Amsterdam Ave, New York, NY 10031, USA"
150,Kottu House,"250 Broome Street, New York, NY",Manhattan,Zabiha,"250 Broome St, New York, NY 10002, USA"
151,Marc Forgione,"134 Reade Street, New York, NY",Manhattan,Zabiha,"134 Reade St, New York, NY 10013, USA"
152,Da Falafel Guys,"127 Rivington Street, New York, NY",Manhattan,Zabiha,"127 Rivington St, New York, NY 10002, USA"
153,Berber Street Food,"35 Carmine Street, New York, NY",Manhattan,Zabiha,"35 Carmine St, New York, NY 10014, USA"
154,Minetta Tavern,"113 Macdougal Street, New York, NY",Manhattan,Zabiha,"113 MacDougal St, New York, NY 10012, USA"
155,Sumela Mediterranean Café & Grill,"1606 1st Avenue, New York, NY",Manhattan,Zabiha,"1606 1st Avenue, New York, NY 10028, USA"
156,Cinnamon Garden,"328 East 6th Street, New York, NY",Manhattan,Zabiha,"328 E 6th St, New York, NY 10003, USA"
157,Top Thai,"235 Sullivan Street, New York, NY",Manhattan,Zabiha,"235 Sullivan St, New York, NY 10012, USA"
158,Tabouleh,"673 9th Avenue, New York, NY",Manhattan,Zabiha,"673 9th Ave, New York, NY 10036, USA"
159,Zeytin,"110 William Street, New York, NY",Manhattan,Zabiha,"110 William St, New York, NY 10038, USA"
160,Kusharista,"106 Macdougal Street, New York, NY",Manhattan,Zabiha,"106 MacDougal St, New York, NY 10012, USA"
161,Bali Kitchen,"128 East 4th Street, New York, NY",Manhattan,Zabiha,"128 E 4th St, New York, NY 10003, USA"
162,Salam Café,"104 West 13th Street, New York, NY",Manhattan,Zabiha,"104 W 13th St, New York, NY 10011, USA"
163,Byblos,"80 Madison Avenue, New York, NY",Manhattan,Zabiha,"80 Madison Ave, New York, NY 10016, USA"
164,Gardenia Terrace,"826 10th Avenue, New York, NY",Manhattan,Zabiha,"826 10th Ave, New York, NY 10019, USA"
165,Miraj Healthy Grill,"120 East 34th Street, New York, NY",Manhattan,Zabiha,"120 E 34th St, New York, NY 10016, USA"
166,Panorama,"820 Broadway, New York, NY",Manhattan,Zabiha,"820 Broadway, New York, NY 10003, USA"
167,Masala King,"64 West 34th Street, New York, NY",Manhattan,Zabiha,"64 W 34th St, New York, NY 10001, USA"
168,This is Gyro,"178 Church Street, Unit A, New York, NY",Manhattan,Zabiha,"178 Church St unit a, New York, NY 10013, USA"
169,NYU Lipton Dining Hall,"33 Washington Square West, New York, NY",Manhattan,Zabiha,"Hayden Residence Hall, 33 Washington Square W, New York, NY 10011, USA"
170,Kennedy Fried Chicken,"1316 5th Avenue, New York, NY",Manhattan,Zabiha,"1316 5th Ave, New York, NY 10026, USA"
171,Crown Fried Chicken,"1774 Lexington Avenue, Unit 2, New York, NY",Manhattan,Zabiha,"1774 Lexington Ave #2, New York, NY 10029, USA"
172,Cava Grill,"678 6th Avenue, New York, NY",Manhattan,Zabiha,"678 6th Ave, New York, NY 10010, USA"
173,Cava Grill,"325 Park Avenue South, New York, NY",Manhattan,Zabiha,"325 Park Ave S, New York, NY 10010, USA"
174,Cava Grill,"1385 Broadway, New York, NY",Manhattan,Zabiha,"1385 Broadway, New York, NY 10018, USA"
175,Cava Grill,"11 West 42nd Street, New York, NY",Manhattan,Zabiha,"11 W 42nd St, New York, NY 10036, USA"
176,Cava Grill,"50 Spring Street, New York, NY",Manhattan,Zabiha,"50 Spring St, New York, NY 10012, USA"
177,Afandi Asian Grill,"149 1st Avenue, New York, NY",Manhattan,Zabiha,"149 1st Avenue, New York, NY 10003, USA"
178,Accra,"2065 Adam Clayton Powell Jr. Blvd., New York, NY",Manhattan,Zabiha,"2065 Adam Clayton Powell Jr Blvd, New York, NY 10027, USA"
179,Skewr Kabob Kitchen,"34 East 23rd Street, New York, NY",Manhattan,Zabiha,"34 E 23rd St, New York, NY 10010, USA"
180,Teranga,"1280 5th Avenue, New York, NY",Manhattan,Zabiha,"1280 5th Ave, New York, NY 10029, USA"
181,Toum,"38 West 38th Street, New York, NY",Manhattan,Zabiha,"W 38th St, New York, NY, USA"
182,Lezzet,"132 East 61st Street, New York, NY",Manhattan,Zabiha,"132 E 61st St, New York, NY 10065, USA"
183,The Hummus & Pita Co.,"585 6th Avenue, New York, NY",Manhattan,Zabiha,"585 6th Ave, New York, NY 10011, USA"
184,The Hummus & Pita Co.,"79 Chambers Street, New York, NY",Manhattan,Zabiha,"79 Chambers St, New York, NY 10007, USA"
185,The Hummus & Pita Co.,"616 8th Avenue, New York, NY",Manhattan,Zabiha,"616 8th Ave, New York, NY 10018, USA"
186,Champion Pizza,"123 Essex Street, New York, NY",Manhattan,Zabiha,"123 Essex St, New York, NY 10002, USA"
187,"Aladdin Grill & Rice","736 West 181st Street, New York, NY",Manhattan,Zabiha,"736 W 181st St, New York, NY 10033, USA"
188,Afghan Kebab House,"764 9th Avenue, New York, NY",Manhattan,Zabiha,"764 9th Ave, New York, NY 10019, USA"
189,Cuisine of Pakistan,"478 9th Avenue, New York, NY",Manhattan,Zabiha,"478 9th Ave, New York, NY 10018, USA"
190,Omar's Mediterranean Grill,"154 East 55th Street #E, New York, NY",Manhattan,Zabiha,
191,Kati Roll Company,"229 East 53rd Street, New York, NY",Manhattan,Zabiha,"229 E 53rd St, New York, NY 10022, USA"
192,Bukhara Grill,"217 East 49th Street, New York, NY",Manhattan,Zabiha,"217 E 49th St, New York, NY 10017, USA"
193,Chandni,"13 West 29th Street, New York, NY",Manhattan,Zabiha,"13 W 29th St, New York, NY 10001, USA"
194,Rafiqi's Halal Food Cart,"768 Broadway, New York, NY",Manhattan,Zabiha,"768 Broadway, New York, NY 10003, USA"
195,Biryani Cart,"6th Avenue & West 46th Street, New York, NY",Manhattan,Zabiha,"6th Ave, New York, NY, USA"
196,KFC,"3645 Broadway, New York, NY",Manhattan,Zabiha,"3645 Broadway, New York, NY 10031, USA"
197,AnTalia,"17 West 45th Street, New York, NY",Manhattan,Zabiha,"17 W 45th St, New York, NY 10036, USA"
198,Khyber Pass,"34 St. Marks Place, New York, NY",Manhattan,Zabiha,"34 St Marks Pl, New York, NY 10003, USA"
199,Pakistan Tea House,"176 Church Street, New York, NY",Manhattan,Zabiha,"176 Church St, New York, NY 10013, USA"
200,Curry Hut,"534 9th Avenue, New York, NY",Manhattan,Zabiha,"534 9th Ave, New York, NY 10018, USA"
201,Big Arc Chicken,"233 1st Avenue, New York, NY",Manhattan,Zabiha,"233 1st Avenue, New York, NY 10003, USA"
202,Queen Sheeba,"317 West 141st Street, New York, NY",Manhattan,Zabiha,"317 W 141st St, New York, NY 10030, USA"
203,Kati Roll Company,"99 Macdougal Street, New York, NY",Manhattan,Zabiha,"99 MacDougal St, New York, NY 10012, USA"
204,Hudson Halal Food Cart,"250 Greenwich Street, New York, NY",Manhattan,Zabiha,"7 World Trade Center, 250 Greenwich St, New York, NY 10006, USA"
205,Sammi's Halal Cart,"West 4th Street & 6th Avenue, New York, NY",Manhattan,Zabiha,"West 4th Street Courts, 272 6th Ave, New York, NY 10012, USA"
206,Salt and Pepper,"139 West 33rd Street, New York, NY",Manhattan,Zabiha,"139 W 33rd St, New York, NY 10001, USA"
207,No Pork Halal Kitchen,"2135 2nd Avenue, New York, NY",Manhattan,Zabiha,"2135 2nd Ave, New York, NY 10029, USA"
208,Haandi,"113 Lexington Avenue, New York, NY",Manhattan,Zabiha,"113 Lexington Ave, New York, NY 10016, USA"
209,Halal Chicken at Columbia U,"116th Street and Broadway, New York, NY",Manhattan,Zabiha,"Broadway & W 116th St, New York, NY 10027, USA"
210,Halal Cart Vendor,"Water Street at Pearl Street, New York, NY",Manhattan,Zabiha,"Pearl St & Water St, New York, NY 10038, USA"
211,Halal Village,"35 First Avenue, New York, NY",Manhattan,Zabiha,"35 1st Avenue, New York, NY 10003, USA"
212,Chicken Guy Cart,"Haven Avenue at Fort Washington Avenue, New York, NY",Manhattan,Zabiha,"Fort Washington Ave & Haven Ave, New York, NY 10032, USA"
213,Sammy's Halal Cart,"West 4th & Broadway, New York, NY",Manhattan,Zabiha,"West 4th Street, New York, NY, USA"
214,Kimmel Market Place,"60 Washington Square South, New York, NY",Manhattan,Zabiha,"60 Washington Square S, New York, NY 10012, USA"
215,Halal Cart,"Varick Street & Canal Street, New York, NY",Manhattan,Zabiha,"Varick St, New York, NY, USA"
216,Adel's Halal Food,"6th Avenue & West 50th Street, New York, NY",Manhattan,Zabiha,"6th Ave, New York, NY, USA"
217,Halal Food Cart,"Broadway & West 37th Street, New York, NY",Manhattan,Zabiha,"303 S Broadway, Wichita, KS 67202, USA"
218,Bombay Deli,"367 West 36th Street, New York, NY",Manhattan,Zabiha,"367 W 36th St, New York, NY 10018, USA"
219,Sheezaan,"183 Church Street, New York, NY",Manhattan,Zabiha,"183 Church St, New York, NY 10007, USA"
220,The MasalaWala,"179 Essex Street, New York, NY",Manhattan,Zabiha,"179 Essex St, New York, NY 10002, USA"
221,The Halal Guys,"6th Avenue & West 53rd Street, New York, NY",Manhattan,Zabiha,"6th Ave, New York, NY, USA"
222,The Halal Guys,"7th Avenue & West 53rd Street, New York, NY",Manhattan,Zabiha,"3092 Poplar Ave # 13, Memphis, TN 38111, USA"
223,Salaam Bombay,"319 Greenwich Street, New York, NY",Manhattan,Zabiha,"319 Greenwich St, New York, NY 10013, USA"
224,B & D Halal,"163 West 29th Street, New York, NY",Manhattan,Zabiha,"163 W 29th St, New York, NY 10001, USA"
225,Indo Pak Halal,"2173 2nd Avenue, New York, NY",Manhattan,Zabiha,"2173 2nd Ave, New York, NY 10029, USA"
226,Kati Roll Company,"49 West 39th Street, New York, NY",Manhattan,Zabiha,"49 W 39th St, New York, NY 10018, USA"
227,Bhatti Indian Grill,"100 Lexington Avenue, New York, NY",Manhattan,Zabiha,"100 Lexington Ave, New York, NY 10016, USA"
228,Au Za'atar,"188 Avenue A, New York, NY",Manhattan,Zabiha,"188 Avenue A, New York, NY 10009, USA"
229,Baluchi's,"37 West 43rd Street, New York, NY",Manhattan,Zabiha,"37 W 43rd St, New York, NY 10036, USA"
230,The Halal Guys,"722 Amsterdam Avenue, New York, NY",Manhattan,Zabiha,"722 Amsterdam Ave, New York, NY 10025, USA"
231,Pikine African Restaurant,"243 West 116th Street, New York, NY",Manhattan,Zabiha,"243 W 116th St, New York, NY 10026, USA"
232,Nusr-Et Steakhouse,"60 West 53rd Street, New York, NY",Manhattan,Zabiha,"60 W 53rd St, New York, NY 10019, USA"
233,Z Deli & Pizza,"803 8th Avenue, New York, NY",Manhattan,Zabiha,"803 8th Ave, New York, NY 10019, USA"
234,Curry in a Hurry,"119 Lexington Avenue, New York, NY",Manhattan,Zabiha,"119 Lexington Ave, New York, NY 10016, USA"
235,Seven's Turkish Grill,"158 West 72nd Street, New York, NY",Manhattan,Zabiha,"158 W 72nd St, New York, NY 10023, USA"
236,Anka Grill,"642 Lexington Avenue, New York, NY",Manhattan,Zabiha,"642 Lexington Ave, New York, NY 10022, USA"
237,Diwan e Khaas,"53 Nassau Street #A, New York, NY",Manhattan,Zabiha,
238,Crown Fried Chicken,"1867 Lexington Avenue, New York, NY",Manhattan,Zabiha,"1867 Lexington Ave, New York, NY 10029, USA"
239,Great Sphinx Halal Food,"74 9th Avenue, New York, NY",Manhattan,Zabiha,"74 9th Ave, New York, NY 10011, USA"
240,Halal Food Cart,"West 48th Street & Broadway, New York, NY",Manhattan,Zabiha,"W 48th St, New York, NY, USA"
241,Lemony Greek Yeero Bar,"224 West 35th Street, New York, NY",Manhattan,Zabiha,"224 W 35th St, New York, NY 10001, USA"
242,Love Mama,"174 2nd Avenue, New York, NY",Manhattan,Zabiha,"174 2nd Ave, New York, NY 10003, USA"
243,Ashoka Grill,"1436 Flatbush Avenue, Brooklyn, NY",Brooklyn,Zabiha,"1436 Flatbush Ave, Brooklyn, NY 11210, USA"
244,Lutheran Halal Café,"5121 2nd Avenue, Brooklyn, NY",Brooklyn,Zabiha,"5121 2nd Ave, Brooklyn, NY 11232, USA"
245,Istanbul Park,"293 7th Avenue, Brooklyn, NY",Brooklyn,Zabiha,"293 7th Ave, Brooklyn, NY 11215, USA"
246,Sahara Sweets & Bakery,"1026 Coney Island Avenue, Brooklyn, NY",Brooklyn,Zabiha,"1026 Coney Island Ave, Brooklyn, NY 11230, USA"
247,Crown Fried Chicken,"1519 Fulton Street, Brooklyn, NY",Brooklyn,Zabiha,"1519 Fulton St, Brooklyn, NY 11216, USA"
248,Mazedar Zabiha Halal Meat & Grocery,"671 Coney Island Avenue, Brooklyn, NY",Brooklyn,Zabiha,"671 Coney Island Ave, Brooklyn, NY 11218, USA"
249,Kashmir Grill,"816 Coney Island Avenue, Brooklyn, NY",Brooklyn,Zabiha,"816 Coney Island Ave, Brooklyn, NY 11218, USA"
250,Opera Café Lounge,"2255 Emmons Avenue, Brooklyn, NY",Brooklyn,Zabiha,"2255 Emmons Ave, Brooklyn, NY 11235, USA"
251,Greenhouse,"90 Church Avenue, Brooklyn, NY",Brooklyn,Zabiha,"90 Church Ave, Brooklyn, NY 11218, USA"
252,Kofte Piyaz,"881 5th Avenue, Brooklyn, NY",Brooklyn,Zabiha,"881 5th Ave, Brooklyn, NY 11232, USA"
253,Khan's Gyro & Fried Chicken,"1947 Bath Avenue, New York, NY",Brooklyn,Zabiha,"1947 Bath Ave, Brooklyn, NY 11214, USA"
254,Flatbush Halal Restaurant,"1210 Flatbush Avenue, Brooklyn, NY",Brooklyn,Zabiha,"1210 Flatbush Ave, Brooklyn, NY 11226, USA"
255,Sweetness USA,"1150 Coney Island Avenue, Brooklyn, NY",Brooklyn,Zabiha,"1150 Coney Island Ave, Brooklyn, NY 11230, USA"
256,Java Rijsttafel,"455 7th Avenue, Brooklyn, NY",Brooklyn,Zabiha,"455 7th Ave, Brooklyn, NY 11215, USA"
257,Beyti Turkish Kebab,"414 Brighton Beach Avenue, Brooklyn, NY",Brooklyn,Zabiha,"414 Brighton Beach Ave, Brooklyn, NY 11235, USA"
258,Dar 525,"525 Grand Street, Brooklyn, NY",Brooklyn,Zabiha,"525 Grand St, Brooklyn, NY 11211, USA"
259,Sahara Ark,"887 Fulton Street, Unit C, Brooklyn, NY",Brooklyn,Zabiha,"887 Fulton St unit c, Brooklyn, NY 11238, USA"
260,New York Falafel,"127 Wyckoff Avenue, Brooklyn, NY",Brooklyn,Zabiha,"127 Wyckoff Ave, Brooklyn, NY 11237, USA"
261,David's Brisket House & Deli,"533 Nostrand Avenue, Brooklyn, NY",Brooklyn,Zabiha,"533 Nostrand Ave, Brooklyn, NY 11216, USA"
262,Your House Café,"6916 4th Avenue, Brooklyn, NY",Brooklyn,Zabiha,"6916 4th Ave, Brooklyn, NY 11209, USA"
263,Halal International,"574 Atlantic Avenue, Brooklyn, NY",Brooklyn,Zabiha,"574 Atlantic Ave, Brooklyn, NY 11217, USA"
264,Anatolian Gyro,"2623 East 16th Street, Brooklyn, NY",Brooklyn,Zabiha,"2623 East 16th Street, Brooklyn, NY 11235, USA"
265,Mis Grill,"370 5th Avenue, Brooklyn, NY",Brooklyn,Zabiha,"370 5th Ave, Brooklyn, NY 11215, USA"
266,Taheni Mediterranean Grill,"224 4th Avenue, Brooklyn, NY",Brooklyn,Zabiha,"224 4th Ave, Brooklyn, NY 11215, USA"
267,Brooklyn Halal Grill,"1148 Liberty Avenue, Brooklyn, NY",Brooklyn,Zabiha,"1148 Liberty Ave, Brooklyn, NY 11208, USA"
268,Momo's Mediterranean Grill,"29 101st Avenue, Brooklyn, NY",Brooklyn,Zabiha,"29 101st Ave, Brooklyn, NY 11208, USA"
269,Burger Box,"2930 Avenue X, Brooklyn, NY",Brooklyn,Zabiha,"2930 Avenue X, Brooklyn, NY 11235, USA"
270,My House Burgers & Shakes,"1650 Sheepshead Bay Road, Brooklyn, NY",Brooklyn,Zabiha,"1650 Sheepshead Bay Rd, Brooklyn, NY 11235, USA"
271,Ali's Roti Shop,"1267 Fulton Street, Brooklyn, NY",Brooklyn,Zabiha,"1267 Fulton St, Brooklyn, NY 11216, USA"
272,Gyro King,"1017 Foster Avenue, Brooklyn, NY",Brooklyn,Zabiha,"1017 Foster Ave, Brooklyn, NY 11236, USA"
273,Pakiza,"1032 Coney Island Avenue, Brooklyn, NY",Brooklyn,Zabiha,"1032 Coney Island Ave, Brooklyn, NY 11230, USA"
274,Moon Café,"496 Atlantic Avenue, Brooklyn, NY",Brooklyn,Zabiha,"496 Atlantic Ave, Brooklyn, NY 11217, USA"
275,Café Kashker,"1141 Brighton Beach Avenue, Brooklyn, NY",Brooklyn,Zabiha,"1141 Brighton Beach Ave, Brooklyn, NY 11235, USA"
276,Pak Nasheman,"3149 Coney Island Avenue, New York, NY",Brooklyn,Zabiha,"3149 Coney Island Ave, Brooklyn, NY 11235, USA"
277,Curry Heights,"151 Remsen Street, Brooklyn, NY",Brooklyn,Zabiha,"151 Remsen St, Brooklyn, NY 11201, USA"
278,King Falafel,"7408 3rd Avenue, Brooklyn, NY",Brooklyn,Zabiha,"7408 3rd Ave, Brooklyn, NY 11209, USA"
279,The Soul Spot,"302 Atlantic Avenue, Brooklyn, NY",Brooklyn,Zabiha,"302 Atlantic Ave, Brooklyn, NY 11201, USA"
280,Yemen Café,"176 Atlantic Avenue, New York, NY",Brooklyn,Zabiha,"176 Atlantic Ave, Brooklyn, NY 11201, USA"
281,China Pagoda,"6918 5th Avenue, Brooklyn, NY",Brooklyn,Zabiha,"6918 5th Ave, Brooklyn, NY 11209, USA"
282,SkyIce Sweet & Savory,"63 5th Avenue, Brooklyn, NY",Brooklyn,Zabiha,"63 5th Ave, Brooklyn, NY 11217, USA"
283,No Pork Halal Kitchen,"50 4th Avenue, Brooklyn, NY",Brooklyn,Zabiha,"50 4th Ave, Brooklyn, NY 11217, USA"
284,Taci's Beyti,"1955 Coney Island Avenue, Brooklyn, NY",Brooklyn,Zabiha,"1955 Coney Island Ave, Brooklyn, NY 11223, USA"
285,First Oasis,"9218 4th Avenue, Brooklyn, NY",Brooklyn,Zabiha,"9218 4th Ave, Brooklyn, NY 11209, USA"
286,La Bella Pizza Express,"2178 86th Street, Brooklyn, NY",Brooklyn,Zabiha,"2178 86th St, Brooklyn, NY 11214, USA"
287,Istanbul Restaurant,"1715 Emmons Avenue, Brooklyn, NY",Brooklyn,Zabiha,"1715 Emmons Ave, Brooklyn, NY 11235, USA"
288,Al-Noor Halal Deli,"672 4th Avenue, Brooklyn, NY",Brooklyn,Zabiha,"672 4th Ave, Brooklyn, NY 11232, USA"
289,Abir Halal,"526 Nostrand Avenue, Brooklyn, NY",Brooklyn,Zabiha,"526 Nostrand Ave, Brooklyn, NY 11216, USA"
290,Jamal's Halal Restaurant & Bakery,"308 Ralph Avenue, Brooklyn, NY",Brooklyn,Zabiha,"308 Ralph Ave, Brooklyn, NY 11233, USA"
291,Joloff,"1168 Bedford Avenue, Brooklyn, NY",Brooklyn,Zabiha,"1168 Bedford Ave, Brooklyn, NY 11216, USA"
292,Kennedy Fried Chicken,"2904 Stillwell Avenue, Brooklyn, NY",Brooklyn,Zabiha,"2904 Stillwell Ave, Brooklyn, NY 11224, USA"
293,Punjab Grocery,"1083 Coney Island Avenue, Brooklyn, NY",Brooklyn,Zabiha,"1083 Coney Island Ave, Brooklyn, NY 11230, USA"
294,Gourmet Sweets,"1107 Coney Island Avenue, Brooklyn, NY",Brooklyn,Zabiha,"1107 Coney Island Ave, Brooklyn, NY 11230, USA"
295,Güllüoğlu Café,"1985 Coney Island Avenue, Brooklyn, NY",Brooklyn,Zabiha,"1985 Coney Island Ave, Brooklyn, NY 11223, USA"
296,KFC,"208 McGuinness Blvd., Brooklyn, NY",Brooklyn,Zabiha,"208 McGuinness Blvd, Brooklyn, NY 11222, USA"
297,Shawarma Cart,"116 Wyckoff Avenue, Brooklyn, NY",Brooklyn,Zabiha,"116 Wyckoff Ave, Brooklyn, NY 11237, USA"
298,Halal Paradise Truck,"20 4th Avenue, Brooklyn, NY",Brooklyn,Zabiha,"20 4th Ave, Brooklyn, NY 11217, USA"
299,Famous Turkish Gyro,"1915 Coney Island Avenue, Brooklyn, NY",Brooklyn,Zabiha,"1915 Coney Island Ave, Brooklyn, NY 11230, USA"
300,Gyro Café,"580 Coney Island Avenue, Brooklyn, NY",Brooklyn,Zabiha,"580 Coney Island Ave, Brooklyn, NY 11218, USA"
301,Abdullah Sweets & Restaurant,"91 Church Avenue, Brooklyn, NY",Brooklyn,Zabiha,"91 Church Ave, Brooklyn, NY 11218, USA"
302,Chicken Express,"1013 Avenue H, Brooklyn, NY",Brooklyn,Zabiha,"1013 Avenue H, Brooklyn, NY 11230, USA"
303,Kennedy Fried Chicken,"5424 7th Avenue, Brooklyn, NY",Brooklyn,Zabiha,"5424 7th Ave, Brooklyn, NY 11220, USA"
304,Café Kashkar,"1141 Brighton Beach Avenue, Brooklyn, NY",Brooklyn,Zabiha,"1141 Brighton Beach Ave, Brooklyn, NY 11235, USA"
305,Crown Chicken & Biscuit,"96-15 Flatlands Avenue, Brooklyn, NY",Brooklyn,Zabiha,"9615 Flatlands Ave, Brooklyn, NY 11236, USA"
306,Gandhi Fine Indian Cuisine,"2032 Bedford Avenue, Brooklyn, NY",Brooklyn,Zabiha,"2032 Bedford Ave, Brooklyn, NY 11226, USA"
307,Crown Fried Chicken,"1263 Nostrand Avenue, Brooklyn, NY",Brooklyn,Zabiha,"1263 Nostrand Ave, Brooklyn, NY 11226, USA"
308,Bedawi Café,"266 Prospect Park West, Brooklyn, NY",Brooklyn,Zabiha,"266 Prospect Park West, Brooklyn, NY 11215, USA"
309,Halal Food Cart,"Avenue X & W 2nd St, Brooklyn, NY",Brooklyn,Zabiha,"Avenue X, Brooklyn, NY, USA"
310,Crown Fried Chicken,"1357 Fulton Street, Brooklyn, NY",Brooklyn,Zabiha,"1357 Fulton St, Brooklyn, NY 11216, USA"
311,Kennedy Fried Chicken,"1922 Nostrand Avenue, Brooklyn, NY",Brooklyn,Zabiha,"1922 Nostrand Ave, Brooklyn, NY 11210, USA"
312,Halal Cart,"1268 Bedford Avenue, Brooklyn, NY",Brooklyn,Zabiha,"1268 Bedford Ave, Brooklyn, NY 11216, USA"
313,Crazy Fried Chicken,"55-30 Myrtle Avenue, Ridgewood, NY",Brooklyn,Zabiha,"55-30 Myrtle Ave, Flushing, NY 11385, USA"
314,Sakman Deli & Grill,"6821 4th Avenue, Brooklyn, NY",Brooklyn,Zabiha,"6821 4th Ave, Brooklyn, NY 11220, USA"
315,Damas Falafel House,"407 Myrtle Avenue, Brooklyn, NY",Brooklyn,Zabiha,"407 Myrtle Ave, Brooklyn, NY 11205, USA"
316,Kennedy Fried Chicken & Pizza,"1508 Saint Johns Place, Brooklyn, NY",Brooklyn,Zabiha,"1508 St Johns Pl, Brooklyn, NY 11213, USA"
317,Al-Safa,"8002 5th Avenue, Brooklyn, NY",Brooklyn,Zabiha,"8002 5th Ave, Brooklyn, NY 11209, USA"
318,Shandar Sweets & Restaurant,"679 Coney Island Avenue, Brooklyn, NY",Brooklyn,Zabiha,"679 Coney Island Ave, Brooklyn, NY 11218, USA"
319,Mr. Falafel,"226 7th Avenue, Brooklyn, NY",Brooklyn,Zabiha,"226 7th Ave, Brooklyn, NY 11215, USA"
320,Fava Mediterranean Grill,"6917 5th Avenue, Brooklyn, NY",Brooklyn,Zabiha,"6917 5th Ave, Brooklyn, NY 11209, USA"
321,Halal Cart Food,"Fresh Pond Road & Madison Street, Ridgewood, NY",Brooklyn,Zabiha,"Fresh Pond Rd, Queens, NY, USA"
322,Shama,"232 Neptune Avenue, Brooklyn, NY",Brooklyn,Zabiha,"232 Neptune Ave, Brooklyn, NY 11235, USA"
323,Bombay Heights,"1047 Bedford Avenue, Brooklyn, NY",Brooklyn,Zabiha,"1047 Bedford Ave, Brooklyn, NY 11216, USA"
324,Nepalese Indian Restaurant,"907 Seneca Avenue, Ridgewood, NY",Brooklyn,Zabiha,"907 Seneca Ave, Ridgewood, NY 11385, USA"
325,Agra Heights,"226 Wilson Avenue, Brooklyn, NY",Brooklyn,Zabiha,"226 Wilson Ave, Brooklyn, NY 11237, USA"
326,Hadramout,"172 Atlantic Avenue, Brooklyn, NY",Brooklyn,Zabiha,"172 Atlantic Ave, Brooklyn, NY 11201, USA"
327,Masal Café & Lounge,"1901 Emmons Avenue, Brooklyn, NY",Brooklyn,Zabiha,"1901 Emmons Ave, Brooklyn, NY 11235, USA"
328,Baluchi's,"310 5th Avenue, Brooklyn, NY",Brooklyn,Zabiha,"310 5th Ave, Brooklyn, NY 11215, USA"
329,Taksim Square (II),"776 4th Avenue, Brooklyn, NY",Brooklyn,Zabiha,"776 4th Ave, Brooklyn, NY 11232, USA"
330,Halal Shish Kebab & Gyro,"487 73rd Street, New York, NY",Brooklyn,Zabiha,"487 E 73rd St, New York, NY 10021, USA"
331,Kestane Kebab,"110 Nassau Avenue #B, Brooklyn, NY",Brooklyn,Zabiha,
332,Sido Gourmet,"849 46th Street, Brooklyn, NY",Brooklyn,Zabiha,"849 46th St, Brooklyn, NY 11220, USA"
333,Yemen Alsaeed Café,"7130 5th Avenue, Brooklyn, NY",Brooklyn,Zabiha,"7130 5th Ave, Brooklyn, NY 11209, USA"
334,Yemen Cuisine,"145 Court Street, Brooklyn, NY",Brooklyn,Zabiha,"145 Court St, Brooklyn, NY 11201, USA"
335,Halal Restaurant Corp.,"1174 Fulton Street, Brooklyn, NY",Brooklyn,Zabiha,"1174 Fulton St, Brooklyn, NY 11216, USA"
336,Aksaray Turkish Café,"1618 East 16th Street, Brooklyn, NY",Brooklyn,Zabiha,"1618 East 16th Street, Brooklyn, NY 11229, USA"
337,Meena House Café,"476 Bay Ridge Avenue, New York, NY",Brooklyn,Zabiha,"476 Bay Ridge Ave, Brooklyn, NY 11220, USA"
338,Madina Restaurant & Sweets,"563 Coney Island Avenue, Brooklyn, NY",Brooklyn,Zabiha,"563 Coney Island Ave, Brooklyn, NY 11218, USA"
339,King of Tandoor,"7407 3rd Avenue, Brooklyn, NY",Brooklyn,Zabiha,"7407 3rd Ave, Brooklyn, NY 11209, USA"
340,King of Tandoor,"600 Flatbush Avenue, Brooklyn, NY",Brooklyn,Zabiha,"600 Flatbush Ave, Brooklyn, NY 11225, USA"
341,La Goulette,"159 Grand Street, Brooklyn, NY",Brooklyn,Zabiha,"159 Grand St, Brooklyn, NY 11249, USA"
342,Curry Heaven,"513 Grand Street, Brooklyn, NY",Brooklyn,Zabiha,"513 Grand St, Brooklyn, NY 11211, USA"
343,Oasis of Greenpoint,"230 Calyer Street, Brooklyn, NY",Brooklyn,Zabiha,"230 Calyer St, Brooklyn, NY 11222, USA"
344,God Bless Deli,"818 Manhattan Avenue, Brooklyn, NY",Brooklyn,Zabiha,"818 Manhattan Ave, Brooklyn, NY 11222, USA"
345,Nostrand Express Deli,"2184 Nostrand Avenue, Brooklyn, NY",Brooklyn,Zabiha,"2184 Nostrand Ave, Brooklyn, NY 11210, USA"
346,Tripoli,"156 Atlantic Avenue, Brooklyn, NY",Brooklyn,Zabiha,"156 Atlantic Ave, Brooklyn, NY 11201, USA"
347,Organic Halal Deli,"3602 Neptune Avenue, Brooklyn, NY",Brooklyn,Zabiha,"3602 Neptune Ave, Brooklyn, NY 11224, USA"
348,Rocca Café Lounge,"2712 Emmons Avenue, Brooklyn, NY",Brooklyn,Zabiha,"2712 Emmons Ave, Brooklyn, NY 11235, USA"
349,Bushwick Pita Palace,"243 Bushwick Avenue, Brooklyn, NY",Brooklyn,Zabiha,"243 Bushwick Ave, Brooklyn, NY 11206, USA"
350,Emir Palace,"4210 18th Avenue, Brooklyn, NY",Brooklyn,Zabiha,"4210 18th Ave, Brooklyn, NY 11218, USA"
351,Uzbechka,"42 Avenue O, Bensonhurst, NY",Brooklyn,Zabiha,"42 Avenue O, Brooklyn, NY 11204, USA"
352,Güllüoglu Baklava Café,"231 Brighton Beach Avenue, Brooklyn, NY",Brooklyn,Zabiha,"231 Brighton Beach Ave, Brooklyn, NY 11235, USA"
353,Deniz,"662 Fulton Street, Brooklyn, NY",Brooklyn,Zabiha,"662 Fulton St, Brooklyn, NY 11207, USA"
354,Buka,"946 Fulton Street, Brooklyn, NY",Brooklyn,Zabiha,"946 Fulton St, Brooklyn, NY 11238, USA"
355,Café Rue Dix,"1451 Bedford Avenue, Brooklyn, NY",Brooklyn,Zabiha,"1451 Bedford Ave, Brooklyn, NY 11216, USA"
356,Le Sajj,"8221 5th Avenue, Brooklyn, NY",Brooklyn,Zabiha,"8221 5th Ave, Brooklyn, NY 11209, USA"
357,Crown Fried Chicken,"1604 Newkirk Avenue, Brooklyn, NY",Brooklyn,Zabiha,"1604 Newkirk Ave, Brooklyn, NY 11226, USA"
358,Kennedy Fried Chicken,"1258 Flatbush Avenue, Brooklyn, NY",Brooklyn,Zabiha,"1258 Flatbush Ave, Brooklyn, NY 11226, USA"
359,Bab Alhara,"376 86th Street, Brooklyn, NY",Brooklyn,Zabiha,"376 86th St, Brooklyn, NY 11209, USA"
360,Cocoa Grinder,"8521 4th Avenue, Brooklyn, NY",Brooklyn,Zabiha,"8521 4th Ave, Brooklyn, NY 11209, USA"
361,Mumbai Place,"655 Vanderbilt Avenue, Brooklyn, NY",Brooklyn,Zabiha,"655 Vanderbilt Ave, Brooklyn, NY 11238, USA"
362,Lazzat,"1969 Bath Avenue, Brooklyn, NY",Brooklyn,Zabiha,"1969 Bath Ave, Brooklyn, NY 11214, USA"
363,All About Indian Food,"443 Bushwick Avenue, Brooklyn, NY",Brooklyn,Zabiha,"443 Bushwick Ave, Brooklyn, NY 11206, USA"
364,Chubby's Chicken & Burgers,"7021 3rd Avenue, Brooklyn, NY",Brooklyn,Zabiha,"7021 3rd Ave, Brooklyn, NY 11209, USA"
365,Bombay Grill,"8716 3rd Avenue, Brooklyn, NY",Brooklyn,Zabiha,"8716 3rd Ave, Brooklyn, NY 11209, USA"
366,Mocha Mocha Coffee,"8602 4th Avenue, Brooklyn, NY",Brooklyn,Zabiha,"8602 4th Ave, Brooklyn, NY 11209, USA"
367,Keep It Halal,"1162 Coney Island Avenue, Brooklyn, NY",Brooklyn,Zabiha,"1162 Coney Island Ave, Brooklyn, NY 11230, USA"
368,Agra King,"1961 Flatbush Avenue, Brooklyn, NY",Brooklyn,Zabiha,"1961 Flatbush Ave, Brooklyn, NY 11234, USA"
369,Clubs Gyro,"1026 Nostrand Avenue, Brooklyn, NY",Brooklyn,Zabiha,"1026 Nostrand Ave, Brooklyn, NY 11225, USA"
370,Istanbul Kitchen,"535 86th Street, Brooklyn, NY",Brooklyn,Zabiha,"535 86th St, Brooklyn, NY 11209, USA"
371,Crisp & Crunch,"1258 Flatbush Avenue, Brooklyn, NY",Brooklyn,Zabiha,"1258 Flatbush Ave, Brooklyn, NY 11226, USA"
372,Safari,"219 West 116th Street, New York, NY",Brooklyn,Zabiha,"219 W 116th St, New York, NY 10026, USA"
373,Café Dushanbe,"1788 Sheepshead Bay Road, Brooklyn, NY",Brooklyn,Zabiha,"1788 Sheepshead Bay Rd, Brooklyn, NY 11235, USA"
374,Azerbaijan House,"2612 East 14th Street, Brooklyn, NY",Brooklyn,Zabiha,"2612 E 14th St, Brooklyn, NY 11235, USA"
375,Crown Fried Chicken,"2813 Glenwood Road, Brooklyn, NY",Brooklyn,Zabiha,"2813 Glenwood Rd, Brooklyn, NY 11210, USA"
376,Atomic Wings,"188 Parkside Avenue, Brooklyn, NY",Brooklyn,Zabiha,"188 Parkside Ave, Brooklyn, NY 11226, USA"
377,Kennedy Fried Chicken,"1676 Nostrand Avenue, Brooklyn, NY",Brooklyn,Zabiha,"1676 Nostrand Ave, Brooklyn, NY 11226, USA"
378,Palace on Fulton,"1882 Fulton Street, Brooklyn, NY",Brooklyn,Zabiha,"1882 Fulton St, Brooklyn, NY 11233, USA"
379,Gusho Healthy Choice,"1747 Fulton Street, Brooklyn, NY",Brooklyn,Zabiha,"1747 Fulton St, Brooklyn, NY 11233, USA"
380,US Fried Chicken & Pizza,"1231 Nostrand Avenue, Brooklyn, NY",Brooklyn,Zabiha,"1231 Nostrand Ave, Brooklyn, NY 11225, USA"
381,BK JANI,"276 Knickerbocker Avenue, Brooklyn, NY",Brooklyn,Zabiha,"276 Knickerbocker Ave, Brooklyn, NY 11237, USA"
382,Harway Pizza Gyro Falafel,"2863 Harway Avenue, Brooklyn, NY",Brooklyn,Zabiha,"2863 Harway Ave, Brooklyn, NY 11214, USA"
383,Sultan,"144 Atlantic Avenue, Brooklyn, NY",Brooklyn,Zabiha,"144 Atlantic Ave, Brooklyn, NY 11201, USA"
384,Gyro Mania,"2151 Bath Avenue, Brooklyn, NY",Brooklyn,Zabiha,"2151 Bath Ave, Brooklyn, NY 11214, USA"
385,Anarkali,"1125 Church Avenue, Brooklyn, NY",Brooklyn,Zabiha,"1125 Church Ave, Brooklyn, NY 11218, USA"
386,NY Fried Chicken & Pizza,"2193 Bedford Avenue, Brooklyn, NY",Brooklyn,Zabiha,"2193 Bedford Ave, Brooklyn, NY 11226, USA"
387,Sal's Restaurant,"810 Franklin Avenue, Brooklyn, NY",Brooklyn,Zabiha,"810 Franklin Ave, Brooklyn, NY 11225, USA"
388,Motin Spices & Sweets,"1215 Liberty Avenue, Brooklyn, NY",Brooklyn,Zabiha,"1215 Liberty Ave, Brooklyn, NY 11208, USA"
389,Kennedy Fried Chicken & Pizza,"2837 86th Street, Brooklyn, NY",Brooklyn,Zabiha,"2837 86th St, Brooklyn, NY 11223, USA"
390,Darna Falafel,"200 Court Street, Brooklyn, NY",Brooklyn,Zabiha,"200 Court St, Brooklyn, NY 11201, USA"
391,Hadi,"683 Coney Island Avenue, Brooklyn, NY",Brooklyn,Zabiha,"683 Coney Island Ave, Brooklyn, NY 11218, USA"
392,Mazeish Grill,"137 Rivington Street, New York, NY",Brooklyn,Zabiha,"137 Rivington St, New York, NY 10002, USA"
393,Le Baobab Gouygi 2,"1235 Fulton Street, Brooklyn, NY",Brooklyn,Zabiha,"1235 Fulton St, Brooklyn, NY 11216, USA"
394,Krown Fried Chicken,"1843 Nostrand Avenue, Brooklyn, NY",Brooklyn,Zabiha,"1843 Nostrand Ave, Brooklyn, NY 11226, USA"
395,Cortelyou Bazaar,"211 Cortelyou Road, Brooklyn, NY",Brooklyn,Zabiha,"211 Cortelyou Rd, Brooklyn, NY 11218, USA"
396,Bombay Xpress,"964 Dekalb Avenue, Brooklyn, NY",Brooklyn,Zabiha,"964 Dekalb Ave, Brooklyn, NY 11221, USA"
397,Taj Masala,"256 Malcolm X Blvd., Brooklyn, NY",Brooklyn,Zabiha,"256 Malcolm X Blvd, Brooklyn, NY 11233, USA"
398,Pita Pan,"167 7th Avenue, Brooklyn, NY",Brooklyn,Zabiha,"167 7th Ave, Brooklyn, NY 11215, USA"
399,Lahori Chilli,"1026 Coney Island Avenue, Brooklyn, NY",Brooklyn,Zabiha,"1026 Coney Island Ave, Brooklyn, NY 11230, USA"
400,The Halal Spot,"474 Myrtle Avenue, Brooklyn, NY",Brooklyn,Zabiha,"474 Myrtle Ave, Brooklyn, NY 11205, USA"
401,Dixie Chicken & Grill,"7504 5th Avenue, Brooklyn, NY",Brooklyn,Zabiha,"7504 5th Ave, Brooklyn, NY 11209, USA"
402,KFC,"534 Coney Island Avenue, Brooklyn, NY",Brooklyn,Zabiha,"534 Coney Island Ave, Brooklyn, NY 11218, USA"
403,H&W Gourmet Deli,"3423 Church Avenue, Brooklyn, NY",Brooklyn,Zabiha,"3423 Church Ave, Brooklyn, NY 11203, USA"
404,Efes Café & Bakery,"601 Brighton Beach Avenue, Brooklyn, NY",Brooklyn,Zabiha,"601 Brighton Beach Ave, Brooklyn, NY 11235, USA"
405,M&S Deli & Grocery,"1294 Nostrand Avenue, Brooklyn, NY",Brooklyn,Zabiha,"1294 Nostrand Ave, Brooklyn, NY 11226, USA"
406,Tutt Café,"47 Hicks Street, Brooklyn, NY",Brooklyn,Zabiha,"47 Hicks St, Brooklyn, NY 11201, USA"
407,Texas Chicken & Burgers,"521 Ocean Avenue, Brooklyn, NY",Brooklyn,Zabiha,"521 Ocean Ave, Brooklyn, NY 11226, USA"
408,Crown Fried Chicken,"3402 Church Avenue, Brooklyn, NY",Brooklyn,Zabiha,"3402 Church Ave, Brooklyn, NY 11203, USA"
409,Zatar Café Bistro,"1294 Myrtle Avenue, Brooklyn, NY",Brooklyn,Zabiha,"1294 Myrtle Ave, Brooklyn, NY 11221, USA"
410,Mandela Halal Buffet,"267 Troy Avenue, Brooklyn, NY",Brooklyn,Zabiha,"267 Troy Ave, Brooklyn, NY 11213, USA"
411,My House Burgers & Shakes,"367 Avenue X, Brooklyn, NY",Brooklyn,Zabiha,"367 Avenue X, Brooklyn, NY 11223, USA"
412,Döner Kebab NYC,"34 Willoughby Street, Brooklyn, NY",Brooklyn,Zabiha,"34 Willoughby St, Brooklyn, NY 11201, USA"
413,Grill Hut,"887 Fulton Street, Brooklyn, NY",Brooklyn,Zabiha,"887 Fulton St, Brooklyn, NY 11238, USA"
414,Old Baku,"115 Ditmas Avenue, Brooklyn, NY",Brooklyn,Zabiha,"115 Ditmas Ave, Brooklyn, NY 11218, USA"
415,Habib 1 Deli,"631 Flatbush Avenue, Brooklyn, NY",Brooklyn,Zabiha,"631 Flatbush Ave, Brooklyn, NY 11225, USA"
416,Kusharista,"518 86th Street, Brooklyn, NY",Brooklyn,Zabiha,"518 86th St, Brooklyn, NY 11209, USA"
417,Bab Marrakech,"7317 5th Avenue, Brooklyn, NY",Brooklyn,Zabiha,"7317 5th Ave, Brooklyn, NY 11209, USA"
418,Halal Xpress,"7524 18th Avenue, Brooklyn, NY",Brooklyn,Zabiha,"7524 18th Ave, Brooklyn, NY 11214, USA"
419,Burgerim,"518 86th Street, Brooklyn, NY",Brooklyn,Zabiha,"518 86th St, Brooklyn, NY 11209, USA"
420,3 Guys Gyro,"129 Graham Avenue, Brooklyn, NY",Brooklyn,Zabiha,"129 Graham Ave, Brooklyn, NY 11206, USA"
421,Istanblue Kings,"428 Kings Highway, Brooklyn, NY",Brooklyn,Zabiha,"428 Kings Hwy, Brooklyn, NY 11223, USA"
422,Liman,"2710 Emmons Avenue, Brooklyn, NY",Brooklyn,Zabiha,"2710 Emmons Ave, Brooklyn, NY 11235, USA"
423,Tava,"318 5th Avenue, Brooklyn, NY",Brooklyn,Zabiha,"318 5th Ave, Brooklyn, NY 11215, USA"
424,Jasper Kane Café,"6 MetroTech Center, Brooklyn, NY",Brooklyn,Zabiha,"6 MetroTech Center, Brooklyn, NY 11201, USA"
425,Cava Grill,"345 Adams Street, Brooklyn, NY",Brooklyn,Zabiha,"345 Adams St, Brooklyn, NY 11201, USA"
426,Cocoa Grinder,"313 Knickerbocker Avenue, Brooklyn, NY",Brooklyn,Zabiha,"313 Knickerbocker Ave, Brooklyn, NY 11237, USA"
427,Seed,"242 5th Avenue, Brooklyn, NY",Brooklyn,Zabiha,"242 5th Ave, Brooklyn, NY 11215, USA"
428,Hills Kitchen,"252 Knickerbocker Avenue, Brooklyn, NY",Brooklyn,Zabiha,"252 Knickerbocker Ave, Brooklyn, NY 11237, USA"
429,Ata,"887 Fulton Street, Brooklyn, NY",Brooklyn,Zabiha,"887 Fulton St, Brooklyn, NY 11238, USA"
430,Asaba Kitchen,"550 Bainbridge Street, Brooklyn, NY",Brooklyn,Zabiha,"550 Bainbridge St, Brooklyn, NY 11233, USA"
431,India House,"586 Nostrand Avenue, Brooklyn, NY",Brooklyn,Zabiha,"586 Nostrand Ave, Brooklyn, NY 11216, USA"
432,Texas Chicken & Burgers,"551 Nostrand Avenue, Brooklyn, NY",Brooklyn,Zabiha,"551 Nostrand Ave, Brooklyn, NY 11216, USA"
433,Sakib,"349 Bedford Avenue, Brooklyn, NY",Brooklyn,Zabiha,"349 Bedford Ave, Brooklyn, NY 11211, USA"
434,"Papa's Halal Crispy Chicken & Gyros
NEW!","622 Chester Street, Brooklyn, NY",Brooklyn,Zabiha,"622 Chester St, Brooklyn, NY 11212, USA"
435,"Mezbani Sweets & Restaurant
NEW!","473 McDonald Avenue, Brooklyn, NY",Brooklyn,Zabiha,"473 McDonald Ave, Brooklyn, NY 11218, USA"
436,Punjab Restaurant,"691 Coney Island Avenue, Brooklyn, NY",Brooklyn,Zabiha,"691 Coney Island Ave, Brooklyn, NY 11218, USA"
437,Istanbul Fast Food,"2202 86th Street, Brooklyn, NY",Brooklyn,Zabiha,"2202 86th St, Brooklyn, NY 11214, USA"
438,Papa's Halal Fried Chicken & Pizza,"1036 Coney Island Avenue, Brooklyn, NY",Brooklyn,Zabiha,"1036 Coney Island Ave, Brooklyn, NY 11230, USA"
439,Bismillah Kabab & Curry,"1203 Liberty Avenue, Brooklyn, NY",Brooklyn,Zabiha,"1203 Liberty Ave, Brooklyn, NY 11208, USA"
440,Blue Nile West Indian,"621 Flatbush Avenue, Brooklyn, NY",Brooklyn,Zabiha,"621 Flatbush Ave, Brooklyn, NY 11225, USA"
441,Affy's Premium Grill,"1909 Coney Island Avenue, Brooklyn, NY",Brooklyn,Zabiha,"1909 Coney Island Ave, Brooklyn, NY 11230, USA"
442,Karam Restaurant,"8519 4th Avenue, Brooklyn, NY",Brooklyn,Zabiha,"8519 4th Ave, Brooklyn, NY 11209, USA"
443,Man'ouche,"7701 5th Avenue, Brooklyn, NY",Brooklyn,Zabiha,"7701 5th Ave, Brooklyn, NY 11209, USA"
444,Grill N Dine,"786 Coney Island Avenue, Brooklyn, NY",Brooklyn,Zabiha,"786 Coney Island Ave, Brooklyn, NY 11218, USA"
445,Hazar Turkish Kebab,"7224 5th Avenue, Brooklyn, NY",Brooklyn,Zabiha,"7224 5th Ave, Brooklyn, NY 11209, USA"
446,Tanoreen,"7704 3rd Avenue, Brooklyn, NY",Brooklyn,Zabiha,"7704 3rd Ave, Brooklyn, NY 11209, USA"
447,Pizza Chef,"1512 Fulton Street, Brooklyn, NY",Brooklyn,Zabiha,"1512 Fulton St, Brooklyn, NY 11213, USA"
448,Bosna Express,"791 Fairview Avenue, Ridgewood, NY",Brooklyn,Zabiha,"791 Fairview Ave, Ridgewood, NY 11385, USA"
449,Kabob Shack,"182 Havemeyer Street, Brooklyn, NY",Brooklyn,Zabiha,"182 Havemeyer St, Brooklyn, NY 11211, USA"
450,Skyway Restaurant & Kabab House,"2032 Bath Avenue, Brooklyn, NY",Brooklyn,Zabiha,"2032 Bath Ave, Brooklyn, NY 11214, USA"
451,Kebab Garden,"2943 Stillwell Avenue, Brooklyn, NY",Brooklyn,Zabiha,"2943 Stillwell Ave, Brooklyn, NY 11224, USA"
452,Bukhari,"1095 Coney Island Avenue, Brooklyn, NY",Brooklyn,Zabiha,"1095 Coney Island Ave, Brooklyn, NY 11230, USA"
453,Bahar Masala,"984 Coney Island Avenue, Brooklyn, NY",Brooklyn,Zabiha,"984 Coney Island Ave, Brooklyn, NY 11230, USA"
454,Memo Shishkebob,"1821 Kings Highway, Brooklyn, NY",Brooklyn,Zabiha,"1821 Kings Hwy, Brooklyn, NY 11229, USA"
455,New Texas Fried Chicken,"803 Cypress Avenue, Ridgewood, NY",Brooklyn,Zabiha,"803 Cypress Ave, Ridgewood, NY 11385, USA"
456,Nablus Sweets & Pastries,"6812 5th Avenue, Brooklyn, NY",Brooklyn,Zabiha,"6812 5th Ave, Brooklyn, NY 11220, USA"
457,The Bahche,"191 7th Street, Brooklyn, NY",Brooklyn,Zabiha,"191 7th St, Brooklyn, NY 11215, USA"
458,Lasiaf Taco & Lounge,"2368 Flatbush Avenue, Brooklyn, NY",Brooklyn,Zabiha,"2368 Flatbush Ave, Brooklyn, NY 11234, USA"
459,Al-Sham Sweets & Pastries,"24-39 Steinway Street, Astoria, NY",Queens,Zabiha,"24-39 Steinway St, Astoria, NY 11103, USA"
460,Duzan Mediterranean Grill,"24-11 Crescent Street South, Queens, NY",Queens,Zabiha,"24-11 Crescent St, Long Island City, NY 11102, USA"
461,El Souk,"25-85 Steinway Street, Astoria, NY",Queens,Zabiha,"25-85 Steinway St, Long Island City, NY 11103, USA"
462,Teal,"22-79 Steinway Street, Astoria, NY",Queens,Zabiha,"22-79 Steinway St, Long Island City, NY 11105, USA"
463,One Stop Pizza & Restaurant,"28-15 36th Avenue, Astoria, NY",Queens,Zabiha,"28-15 36th Ave, Queens, NY 11106, USA"
464,Alfarha Deli,"25-32 Steinway Street, New York, NY",Queens,Zabiha,"25-32 Steinway St, Long Island City, NY 11103, USA"
465,C-Town Supermarket,"169-13 Hillside Avenue, Jamaica, NY",Queens,Zabiha,"169-13 Hillside Avenue, Jamaica, NY 11433, USA"
466,On The Nile Café,"33-09 36th Avenue, New York, NY",Queens,Zabiha,"33-09 36th Ave, Long Island City, NY 11106, USA"
467,Taci's,"102-07 Metropolitan Avenue, Forest Hills, NY",Queens,Zabiha,"102-07 Metropolitan Ave, Flushing, NY 11375, USA"
468,El-Omda,"33-10 28th Avenue, Astoria, NY",Queens,Zabiha,"33-10 28th Ave, Long Island City, NY 11103, USA"
469,Xhale Hookah Lounge,"70-11 Austin Street, Forest Hills, NY",Queens,Zabiha,"70-11 Austin St, Forest Hills, NY 11375, USA"
470,Shawarmania,"22-49 31st Street, Astoria, NY",Queens,Zabiha,"22-49 31st St, Astoria, NY 11105, USA"
471,Shah's Halal Food,"Homelawn Street & Hillside Avenue, Jamaica, NY",Queens,Zabiha,"Homelawn Street, Queens, NY 11432, USA"
472,54th Street Halal Express Deli,"3-10 Beach 54th Street, Far Rockaway, NY",Queens,Zabiha,"3-10 Beach 54th St, Far Rockaway, NY 11692, USA"
473,Uma's,"92-07 Rockaway Beach Blvd., Rockaway Beach, NY",Queens,Zabiha,"92-07 Rockaway Beach Blvd, Far Rockaway, NY 11693, USA"
474,Turkish Grill,"42-03 Queens Blvd., Sunnyside, NY",Queens,Zabiha,"42-03 Queens Blvd, Sunnyside, NY 11104, USA"
475,Kennedy Deli,"157-05 Rockaway Blvd., Jamaica, NY",Queens,Zabiha,"157-05 Rockaway Blvd, Jamaica, NY 11434, USA"
476,Khyber Kabab,"112-11 Jamaica Avenue, Richmond Hill, NY",Queens,Zabiha,"11211 Jamaica Ave, Richmond Hill, NY 11418, USA"
477,Singas Famous Pizza,"2500 Central Park Avenue, Yonkers, NY",Queens,Zabiha,"2500 Central Park Ave, Yonkers, NY 10710, USA"
478,Texas Chicken & Burgers,"255-21 Hillside Avenue, Floral Park, NY",Queens,Zabiha,"255-21 Hillside Avenue, Glen Oaks, NY 11004, USA"
479,Pamir Kabab House & Grill,"70-74 Kissena Blvd., Flushing, NY",Queens,Zabiha,"70-74 Kissena Blvd, Queens, NY 11367, USA"
480,Dhanshiri,"169-28 Hillside Avenue, Jamaica, NY",Queens,Zabiha,"169-28 Hillside Avenue, Jamaica, NY 11432, USA"
481,Madina Halal,"64-02 35th Avenue, Woodside, NY",Queens,Zabiha,"64-02 35th Ave, Flushing, NY 11377, USA"
482,Truva Café & Grill,"22-41 31st Street, Astoria, NY",Queens,Zabiha,"22-41 31st St, Queens, NY 11105, USA"
483,Samis Kabab House,"35-57 Crescent Street, Astoria, NY",Queens,Zabiha,"35-57 Crescent St, Astoria, NY 11106, USA"
484,Kebab Empire,"136-20 Roosevelt Avenue, Flushing, NY",Queens,Zabiha,"136-20 Roosevelt Ave, Flushing, NY 11354, USA"
485,Platinum Hookah Lounge & Café,"140-14 Rockaway Blvd., Jamaica, NY",Queens,Zabiha,"140-14 Rockaway Blvd, Jamaica, NY 11436, USA"
486,Bakhter Halal Kabab,"68-16 Fresh Meadow Lane, Flushing, NY",Queens,Zabiha,"68-16 Fresh Meadow Ln, Fresh Meadows, NY 11365, USA"
487,Addy's BBQ,"30-94 Steinway Street, Astoria, NY",Queens,Zabiha,"30-94 Steinway St, Long Island City, NY 11103, USA"
488,Halalbee's,"182-26 Hillside Avenue, Jamaica, NY",Queens,Zabiha,"182-26 Hillside Avenue, Jamaica, NY 11432, USA"
489,Aria Kabab,"72-55 Kissena Blvd, Flushing, NY",Queens,Zabiha,"72-55 Kissena Blvd, Flushing, NY 11367, USA"
490,KFC,"3042 Steinway Street, Astoria, NY",Queens,Zabiha,"3042 Steinway St, Astoria, NY 11103, USA"
491,Munch,"70-19 Austin Street, Forest Hills, NY",Queens,Zabiha,"70-19 Austin St, Forest Hills, NY 11375, USA"
492,Darbar's Chicken & Ribs,"126-9 Liberty Avenue, South Richmond Hill, NY",Queens,Zabiha,"126-9 Liberty Ave, South Richmond Hill, NY 11419, USA"
493,Kennedy Fried Chicken,"170-02 Hillside Avenue, Jamaica, NY",Queens,Zabiha,"170-02 Hillside Avenue, Jamaica, NY 11432, USA"
494,Fatima's Halal Kitchen,"25-25 Broadway, Queens, NY",Queens,Zabiha,"25-25 Broadway, Queens, NY 11106, USA"
495,Carifesta,"12615 Liberty Avenue, Richmond Hill, NY",Queens,Zabiha,"126-15 Liberty Ave, Jamaica, NY 11419, USA"
496,Tokyo Hibachi,"184-16 Horace Harding Expressway, Fresh Meadows, NY",Queens,Zabiha,"184-16 Horace Harding Expy, Fresh Meadows, NY 11365, USA"
497,Nur Thai,"63-32 Woodhaven Blvd., Rego Park, NY",Queens,Zabiha,"63-32 Woodhaven Blvd, Middle Village, NY 11379, USA"
498,Halal Kitchen,"187-14 Hillside Avenue, Jamaica, NY",Queens,Zabiha,"187-14 Hillside Avenue, Jamaica, NY 11432, USA"
499,Crown Fried Chicken,"182-26 Hillside Avenue, Jamaica, NY",Queens,Zabiha,"182-26 Hillside Avenue, Jamaica, NY 11432, USA"
500,Balkh Shish Kabab House,"23-10 31st Street, Astoria, NY",Queens,Zabiha,"23-10 31st St, Queens, NY 11105, USA"
501,Upi Jaya,"76-04 Woodside Avenue, Elmhurst, NY",Queens,Zabiha,"76-04 Woodside Ave, Flushing, NY 11373, USA"
502,Sarajevo Fast Foods,"3718 34th Avenue, Long Island City, NY",Queens,Zabiha,"3718 34th St, Long Island City, NY 11101, USA"
503,Firdos Grill & Café,"25-21 Steinway Street, Astoria, NY",Queens,Zabiha,"25-21 Steinway St, Long Island City, NY 11103, USA"
504,Halal Sandwich Shop,"25-61 Steinway Street, New York, NY",Queens,Zabiha,"25-61 Steinway St, Long Island City, NY 11103, USA"
505,Marhabah Halal,"128-16 Liberty Avenue, Richmond Hill, NY",Queens,Zabiha,"128-16 Liberty Ave, Jamaica, NY 11419, USA"
506,Halal Kitchen (II),"71-12 Grand Avenue, Maspeth, NY",Queens,Zabiha,"71-12 Grand Ave, Flushing, NY 11378, USA"
507,Bakhtar Afghan Halal Kababs,"68-16 Fresh Meadow Lane, Fresh Meadows, NY",Queens,Zabiha,"68-16 Fresh Meadow Ln, Fresh Meadows, NY 11365, USA"
508,Halal Dynasty,"172-33 Hillside Avenue, Jamaica, NY",Queens,Zabiha,"172-33 Hillside Avenue, Jamaica, NY 11432, USA"
509,Istanbul Restaurant,"95-36 Queens Blvd., Rego Park, NY",Queens,Zabiha,"95-36 Queens Blvd, Flushing, NY 11374, USA"
510,Starlight Grill,"80-02 Astoria Blvd., Astoria, NY",Queens,Zabiha,"8-0 Astoria Blvd, Astoria, NY 11102, USA"
511,Choopan Kabab,"4327 Main Street, Flushing, NY",Queens,Zabiha,"43-27 Main St, Flushing, NY 11355, USA"
512,Kabab Diner,"133-23 Rockaway Blvd., South Ozone Park, NY",Queens,Zabiha,"133-23 Rockaway Blvd, Jamaica, NY 11420, USA"
513,Little Morocco,"24-39 Steinway Street, Queens, NY",Queens,Zabiha,"24-39 Steinway St, Astoria, NY 11103, USA"
514,Mangal Turkish Restaurant,"46-20 Queens Blvd., Sunnyside, NY",Queens,Zabiha,"46-20 Queens Blvd, Long Island City, NY 11104, USA"
515,Tangra Asian Fusion (II),"39-23 Queens Blvd., Sunnyside, NY",Queens,Zabiha,"39-23 Queens Blvd, Long Island City, NY 11104, USA"
516,Kabul Kabab House,"42-51 Main Street, Flushing, NY",Queens,Zabiha,"42-51 Main St, Flushing, NY 11355, USA"
517,Al-Mehran,"87-46 Parsons Blvd., Jamaica, NY",Queens,Zabiha,"87-46 Parsons Blvd, Queens, NY 11432, USA"
518,S&A West Indian Restaurant,"103-06 Liberty Avenue, Jamaica, NY",Queens,Zabiha,"103-06 Liberty Ave, Jamaica, NY 11417, USA"
519,Kabab Café,"25-12 Steinway Street, Astoria, NY",Queens,Zabiha,"25-12 Steinway St, Long Island City, NY 11103, USA"
520,Shah's Halal Food,"121st Street & Liberty Avenue, Richmond Hill, NY",Queens,Zabiha,"121 St / Jamaica Av, Queens, NY 11418, USA"
521,Afghan Kebab House #5,"25-89 Steinway Street, Astoria, NY",Queens,Zabiha,"25-89 Steinway St, Long Island City, NY 11103, USA"
522,Indo Foods Halal Cart,"120th Street and Liberty Avenue, Richmond Hill, Queens, NY",Queens,Zabiha,"Liberty Ave & 120th St, Queens, NY 11419, USA"
523,Halal Kitchen,"42-14 Greenpoint Avenue, Sunnyside, NY",Queens,Zabiha,"42-14 Greenpoint Ave, Sunnyside, NY 11104, USA"
524,Ariana Kebab Palace,"169-10 Hillside Avenue, Jamaica, NY",Queens,Zabiha,"169-10 Hillside Avenue, Jamaica, NY 11432, USA"
525,Palace Fried Chicken,"21-02 36th Avenue, New York, NY",Queens,Zabiha,"21-2 36th Ave, Astoria, NY 11106, USA"
526,Crown Grill Fried Chicken & Pizza,"71-12 Kissena Blvd., Flushing, NY",Queens,Zabiha,"71-12 Kissena Blvd, Flushing, NY 11367, USA"
527,Abdul Halal Food Cart,"Liberty Avenue & Lefferts Blvd, South Richmond Hill, NY",Queens,Zabiha,"Liberty Ave, New York, NY, USA"
528,Mombar,"25-22 Steinway Street, Queens, NY",Queens,Zabiha,"25-22 Steinway St, Long Island City, NY 11103, USA"
529,Abou Bakery,"210-23 Jamaica Avenue, Queens, NY",Queens,Zabiha,"210-23 Jamaica Ave, Jamaica, NY 11428, USA"
530,Curry Point Halal Grill,"41-02 Greenpoint Avenue, Sunnyside, NY",Queens,Zabiha,"41-02 Greenpoint Ave, Long Island City, NY 11104, USA"
531,Palace Chicken,"104-02 Jamaica Avenue, Queens, NY",Queens,Zabiha,"104-02 Jamaica Ave, Jamaica, NY 11418, USA"
532,Halal Gyro & Chicken,"64th Avenue & 108th Street, Forest Hills, NY",Queens,Zabiha,"64th Ave, Oakland, CA, USA"
533,Kennedy Fried Chicken,"13604 Northern Blvd, Flushing, NY",Queens,Zabiha,"136-04 Northern Blvd, Flushing, NY 11354, USA"
534,Rose Bengal,"77-01 101st Avenue, Ozone Park, NY",Queens,Zabiha,"77-01 101st Ave, Jamaica, NY 11416, USA"
535,Nanking,"134-07 Rockaway Blvd., South Ozone Park, NY",Queens,Zabiha,"134-07 Rockaway Blvd, Jamaica, NY 11420, USA"
536,Aden Restaurant,"24-42 Steinway Street, Astoria, NY",Queens,Zabiha,"24-42 Steinway St, Long Island City, NY 11103, USA"
537,Hot N Sour,"396 64th Street, Woodside, NY",Queens,Zabiha,"396 64th St, Woodside, NY 11377, USA"
538,Our Village Roti Shop,"211-61 Jamaica Avenue, Queens Village, NY",Queens,Zabiha,"211-61 Jamaica Ave, Jamaica, NY 11428, USA"
539,Silk Hookah Lounge & Grill,"192-08 Northern Blvd., Flushing, NY",Queens,Zabiha,"192-08 Northern Blvd, Flushing, NY 11358, USA"
540,Anando,"29-14 36th Avenue, Astoria, NY",Queens,Zabiha,"29-14 36th Ave, Queens, NY 11106, USA"
541,Jerusalem Pita House,"25-15 30th Avenue, Long Island City, NY",Queens,Zabiha,"25-15 30th Ave, Long Island City, NY 11102, USA"
542,Just Combo,"21-01 21st Avenue, Astoria, NY",Queens,Zabiha,"21-01 21st Ave, Long Island City, NY 11105, USA"
543,Namaste,"31-15 30th Avenue, Astoria, NY",Queens,Zabiha,"31-15 30th Ave, Long Island City, NY 11102, USA"
544,Saffron Indian Cuisine,"44-04 Broadway, Queens, NY",Queens,Zabiha,"44-04 Broadway, Long Island City, NY 11103, USA"
545,Chang Pai,"166-12 Hillside Avenue, Jamaica, NY",Queens,Zabiha,"166-12 Hillside Avenue, Jamaica, NY 11432, USA"
546,Taste of Bengal,"30-27 31st Street, Astoria, NY",Queens,Zabiha,"30-27 31st St, Long Island City, NY 11102, USA"
547,Djerdan Burek,"33-15 Greenpoint Avenue, Long Island City, NY",Queens,Zabiha,"33-15 Greenpoint Ave, Long Island City, NY 11101, USA"
548,Dhaka Garden,"72-23 37th Avenue, Jackson Heights, NY",Queens,Zabiha,"72-23 37th Ave, Flushing, NY 11372, USA"
549,Asian Halal Food Restaurant,"39-44 21st Street, Long Island City, NY",Queens,Zabiha,"39-44 21st St, Long Island City, NY 11101, USA"
550,Halal Tikka,"87-17 Lefferts Blvd., Richmond Hill, NY",Queens,Zabiha,"87-17 Lefferts Blvd, Jamaica, NY 11418, USA"
551,Tutu's Halal Kitchen,"91-31 Queens Blvd., New York, NY",Queens,Zabiha,"91-31 Queens Blvd, Elmhurst, NY 11373, USA"
552,SABA Restaurant & Grill,"25-75 Steinway Street, Astoria, NY",Queens,Zabiha,"25-75 Steinway St, Long Island City, NY 11103, USA"
553,Aladdin Sweets & Restaurant,"29-06 36th Avenue, Astoria, NY",Queens,Zabiha,"29-06 36th Ave, Astoria, NY 11106, USA"
554,Richi Rich Palace,"110-19 Atlantic Avenue, Richmond Hill, NY",Queens,Zabiha,"110-19 Atlantic Ave, Jamaica, NY 11418, USA"
555,Patoug,"220-06 Horace Harding Expressway South, Queens, NY",Queens,Zabiha,"220-06 Horace Harding Expy, Oakland Gardens, NY 11364, USA"
556,Shah's Halal Food Cart,"Queens Blvd & Union Turnpike, New York, NY",Queens,Zabiha,"Queens Blvd, Queens, NY, USA"
557,Swaad,"29-14 36th Avenue, Astoria, NY",Queens,Zabiha,"29-14 36th Ave, Queens, NY 11106, USA"
558,King Kabab,"130-09 Hillside Avenue, Elmhurst, NY",Queens,Zabiha,"167-09 Hillside Avenue, Jamaica, NY 11432, USA"
559,Green Apple Delight,"29-12 Crescent Street, Astoria, NY",Queens,Zabiha,"29-12 Crescent St, Astoria, NY 11102, USA"
560,Naz Bakery & Roti Shop,"204-17 Jamaica Avenue, Hollis, NY",Queens,Zabiha,"204-17 Jamaica Ave, Jamaica, NY 11423, USA"
561,Crown Fried Chicken,"204-20 Hillside Avenue, Hollis, NY",Queens,Zabiha,"204-20 Hillside Avenue, Jamaica, NY 11423, USA"
562,Halal Cart,"Hollis Court Blvd & Hillside Avenue, Queens Village, NY",Queens,Zabiha,"Hollis Ct Blvd, Queens, NY, USA"
563,Halal Cart,"Hillside Avenue & Francis Lewis Blvd, Queens Village, NY",Queens,Zabiha,"Hillside Avenue, New York, USA"
564,Arya Kabob House,"33-35 Francis Lewis Blvd., Flushing, NY",Queens,Zabiha,"33-35 Francis Lewis Blvd, Flushing, NY 11358, USA"
565,Tasty Fried Chicken Pizza & Grill,"134-19 Liberty Avenue, South Richmond Hill, NY",Queens,Zabiha,"134-19 Liberty Ave, Jamaica, NY 11419, USA"
566,Farid Grill,"25-15 Steinway Street, Astoria, NY",Queens,Zabiha,"25-15 Steinway St, Long Island City, NY 11103, USA"
567,Ignited Restaurant & Lounge,"30-27 Steinway Street, Astoria, NY",Queens,Zabiha,"30-27 Steinway St, Long Island City, NY 11103, USA"
568,Desi Food Market,"109-19 Liberty Avenue, South Richmond Hill, NY",Queens,Zabiha,"109-19 Liberty Ave, Jamaica, NY 11419, USA"
569,Tayaba Gyro,"150-5 14th Road, Whitestone, NY",Queens,Zabiha,"150-05 14th Rd, Flushing, NY 11357, USA"
570,Jackfruit Garden,"83-27 Parsons Blvd, Jamaica, NY",Queens,Zabiha,"83-27 Parsons Blvd, Jamaica, NY 11432, USA"
571,New Bakhtar,"110-23 Jamaica Avenue, Richmond Hill, NY",Queens,Zabiha,"110-23 Jamaica Ave, Jamaica, NY 11418, USA"
572,Uncle's Fried Chicken,"163-04 Hillside Avenue, Jamaica, NY",Queens,Zabiha,"163-04 Hillside Avenue, Jamaica, NY 11432, USA"
573,Joe's Pasta & Pizza,"95-08 Jamaica Avenue, Woodhaven, NY",Queens,Zabiha,"95-08 Jamaica Ave, Jamaica, NY 11421, USA"
574,Kurry Qulture,"36-05 30th Avenue, Astoria, NY",Queens,Zabiha,"36-05 30th Ave, Long Island City, NY 11103, USA"
575,Rockaway Roti,"122-21 Rockaway Blvd., South Ozone Park, NY",Queens,Zabiha,"122-21 Rockaway Blvd, South Ozone Park, NY 11420, USA"
576,Lhasa Fast Food,"37-50 74th Street, Jackson Heights, NY",Queens,Zabiha,"37-50 74th Street, Flushing, NY 11372, USA"
577,Zahid's Halal Food,"Braddock Avenue, Queens Village, NY",Queens,Zabiha,"Braddock Ave, Queens, NY, USA"
578,Tawa Food,"37-38 72nd Street, Jackson Heights, NY",Queens,Zabiha,"37-38 72nd St, Flushing, NY 11372, USA"
579,Yi Lan Halal,"42-79 Main Street, Flushing, NY",Queens,Zabiha,"42-79 Main St, Flushing, NY 11355, USA"
580,Yaar,"22-55 31st Street, Astoria, NY",Queens,Zabiha,"22-55 31st St, Queens, NY 11105, USA"
581,Asian Taste 86,"86-10 Whitney Avenue, Elmhurst, NY",Queens,Zabiha,"86-10 Whitney Ave, Queens, NY 11373, USA"
582,Punda,"39-35 47th Avenue, Sunnyside, NY",Queens,Zabiha,"39-35 47th Ave, Sunnyside, NY 11104, USA"
583,Mirch,"172-27 Hillside Avenue, Jamaica, NY",Queens,Zabiha,"172-27 Hillside Avenue, Jamaica, NY 11432, USA"
584,Namaste Tashi Delek,"37-66 74th Street, Jackson Heights, NY",Queens,Zabiha,"37-66 74th Street, Flushing, NY 11372, USA"
585,Krispy Krunchy Chicken,"179-33 Hillside Avenue, Jamaica, NY",Queens,Zabiha,"179-33 Hillside Avenue, Jamaica, NY 11432, USA"
586,King of Falafel & Shawarma,"3015 Broadway, Astoria, NY",Queens,Zabiha,"30-15 Broadway, Astoria, NY 11106, USA"
587,Brother's Pizzeria,"30-50 14th Street, Astoria, NY",Queens,Zabiha,"30-50 14th St, Long Island City, NY 11102, USA"
588,Tikka Grill,"2402 82nd Street, East Elmhurst, NY",Queens,Zabiha,"2402 82nd St, East Elmhurst, NY 11370, USA"
589,Punjabi Kabab & Gyro,"108-3 101st Avenue, South Richmond Hill, NY",Queens,Zabiha,"108-3 101st Ave, South Richmond Hill, NY 11419, USA"
590,Gaw Gai,"23-06 Jackson Avenue, Long Island City, NY",Queens,Zabiha,"23-06 Jackson Ave, Long Island City, NY 11101, USA"
591,Malingo,"43-16 Queens Blvd., Queens, NY",Queens,Zabiha,"43-16 Queens Blvd, Sunnyside, NY 11104, USA"
592,Dumpling,"147-18 45th Avenue, Flushing, NY",Queens,Zabiha,"147-18 45th Ave, Flushing, NY 11355, USA"
593,Heat Caribbean Kitchen & Lounge,"100-05 Atlantic Avenue, Richmond Hill, NY",Queens,Zabiha,"100-05 Atlantic Ave, Jamaica, NY 11418, USA"
594,Erqal,"136-20 Roosevelt Avenue, Flushing, NY",Queens,Zabiha,"136-20 Roosevelt Ave, Flushing, NY 11354, USA"
595,Apnar Sweets & Bakery,"167-19 Hillside Avenue, Jamaica, NY",Queens,Zabiha,"167-19 Hillside Avenue, Jamaica, NY 11432, USA"
596,Mis Kebab,"142 Main Street, East Rockaway, NY",Queens,Zabiha,"142 Main St, East Rockaway, NY 11518, USA"
597,Kabab & Gyro Grill,"131-07 Liberty Avenue, South Richmond Hill, NY",Queens,Zabiha,"131-07 Liberty Ave, Jamaica, NY 11419, USA"
598,Hamza & Medina Halal Food,"254-05 Hillside Avenue, Floral Park, NY",Queens,Zabiha,"254-05 Hillside Avenue, Glen Oaks, NY 11004, USA"
599,Trinciti Roti Shop,"111-05 Lefferts Blvd., South Ozone Park, NY",Queens,Zabiha,"111-05 Lefferts Blvd, Jamaica, NY 11420, USA"
600,Mejbaan,"74-24 37th Avenue, Jackson Heights, NY",Queens,Zabiha,"74-24 37th Ave, Jackson Heights, NY 11372, USA"
601,Prince Kabab,"37-54 74th Street, Jackson Heights, NY",Queens,Zabiha,"37-54 74th Street, Jackson Heights, NY 11372, USA"
602,Abdullah Sweets & Restaurant,"73-06 37th Avenue, Jackson Heights, NY",Queens,Zabiha,"73-6 37th Ave, Jackson Heights, NY 11372, USA"
603,Meghna Grocery & Halal Meat,"74-18 37th Avenue, Jackson Heights, NY",Queens,Zabiha,"74-18 37th Ave, Jackson Heights, NY 11372, USA"
604,Mannan Halal Meat,"37-08 73rd Street, Jackson Heights, NY",Queens,Zabiha,"37-08 73rd St, Flushing, NY 11372, USA"
605,Merit Kabab,"37-67 74th Street, Jackson Heights, NY",Queens,Zabiha,"37-67 74th Street, Flushing, NY 11372, USA"
606,Zaytoun,"40-13 82nd Street, Elmhurst, NY",Queens,Zabiha,"40-13 82nd St, Queens, NY 11373, USA"
607,PappaRich,"39-16 Prince Street, Unit 205 & 206, Flushing, NY",Queens,Zabiha,"39-16 Prince St #205, Flushing, NY 11354, USA"
608,Junoon Café & Grill,"179-22 Union Turnpike, Fresh Meadows, NY",Queens,Zabiha,"179-22 Union Tpke, Jamaica, NY 11432, USA"
609,Shahi Deggi Grill,"43-39 Main Street, Flushing, NY",Queens,Zabiha,"43-39 Main St, Flushing, NY 11355, USA"
610,Souk El Shater,"43-03 Queens Blvd., Sunnyside, NY",Queens,Zabiha,"43-03 Queens Blvd, Long Island City, NY 11104, USA"
611,Ukus,"42-08 30th Avenue, Astoria, NY",Queens,Zabiha,"42-08 30th Ave, Long Island City, NY 11103, USA"
612,Al Nour Foods,"41-08 30th Avenue, Astoria, NY",Queens,Zabiha,"41-08 30th Ave, Long Island City, NY 11103, USA"
613,Atomic Wings,"153-23A Hillside Avenue, Jamaica, NY",Queens,Zabiha,"153-23A Hillside Avenue, Jamaica, NY 11432, USA"
614,Kennedy Fried Chicken,"167-19 Hillside Avenue, Jamaica, NY",Queens,Zabiha,"167-19 Hillside Avenue, Jamaica, NY 11432, USA"
615,New Texas Chicken & Pizza,"64-01 Broadway, Woodside, NY",Queens,Zabiha,"64-01 Broadway, Flushing, NY 11377, USA"
616,Il Miglio Pizza,"11-03 36th Avenue, Long Island, NY",Queens,Zabiha,"11-03 36th Ave, Long Island City, NY 11106, USA"
617,LIC Grill,"39-44 21st Street, Long Island City, NY",Queens,Zabiha,"39-44 21st St, Long Island City, NY 11101, USA"
618,Hot Peppers,"78-33 Springfield Blvd., Oakland Gardens, NY",Queens,Zabiha,"78-33 Springfield Blvd, Oakland Gardens, NY 11364, USA"
619,CimCim,"33-08 Ditmars Blvd, Astoria, NY",Queens,Zabiha,"33-08 Ditmars Blvd, Queens, NY 11105, USA"
620,AwesomeSauce,"40-06 Astoria Blvd. South, Astoria, NY",Queens,Zabiha,"40-06 Astoria Blvd S, Long Island City, NY 11103, USA"
621,Cevabdzinica Sarajevo,"37-18 34th Avenue, Long Island City, NY",Queens,Zabiha,"37-18 34th Ave, Long Island City, NY 11101, USA"
622,Halal Munchies,"69-21 164th Street, Fresh Meadows, NY",Queens,Zabiha,"69-21 164th St, Fresh Meadows, NY 11365, USA"
623,Halal Boyz,"183-20 Horace Harding Expressway, Flushing, NY",Queens,Zabiha,"183-20 Horace Harding Expy, Flushing, NY 11365, USA"
624,Bakhtar Halal Kabab,"67-29 Main Street, Flushing, NY",Queens,Zabiha,"67-29 Main St, Flushing, NY 11367, USA"
625,Agra Palace Restaurant & Party Hall,"116-33 Queens Blvd., Forest Hills, NY",Queens,Zabiha,"116-33 Queens Blvd, Forest Hills, NY 11375, USA"
626,Adana Türkish Grill,"178-25 Hillside Avenue, Jamaica, NY",Queens,Zabiha,"178-25 Hillside Avenue, Jamaica, NY 11432, USA"
627,Burgerim,"162-16 Union Turnpike, Flushing, NY",Queens,Zabiha,"162-16 Union Tpke, Flushing, NY 11367, USA"
628,Chicago's Pizza With-A-Twist,"117-02 Atlantic Avenue, South Richmond Hill, NY",Queens,Zabiha,"117-02 Atlantic Ave, Jamaica, NY 11419, USA"
629,Farine Baking Company,"74-24 37th Avenue, Jackson Heights, NY",Queens,Zabiha,"74-24 37th Ave, Jackson Heights, NY 11372, USA"
630,Khan Halal Food,"118-18 Jamaica Avenue, Jamaica, NY",Queens,Zabiha,"118-18 Jamaica Ave, Jamaica, NY 11418, USA"
631,El-Rawsheh,"25-48 Steinway Street, Astoria, NY",Queens,Zabiha,"25-48 Steinway St, Long Island City, NY 11103, USA"
632,Tangra Masala,"8709 Grand Avenue, Elmhurst, NY",Queens,Zabiha,"87-09 Grand Ave, Queens, NY 11373, USA"
633,Kababish,"70-64 Broadway, Jackson Heights, NY",Queens,Zabiha,"7064 Broadway, Jackson Heights, NY 11372, USA"
634,Sagar Restaurant,"168-25 Hillside Avenue, Jamaica, NY",Queens,Zabiha,"168-25 Hillside Avenue, Jamaica, NY 11432, USA"
635,Sunshine Restaurant,"6915 Northern Blvd., Woodside, NY",Queens,Zabiha,"69-15 Northern Blvd, Flushing, NY 11377, USA"
636,Al-Naimat Sweets & Restaurant,"37-03 74th Street, Jackson Heights, NY",Queens,Zabiha,"37-03 74th Street, Flushing, NY 11372, USA"
637,34th Avenue Halal Cart,"34th Avenue & Steinway Street, Astoria, NY",Queens,Zabiha,"34-04 34th Ave, Long Island City, NY 11106, USA"
638,BBQ Village Palace,"181-12 Hillside Avenue, Hollis, NY",Queens,Zabiha,"181-12 Hillside Avenue, Hollis, NY 11423, USA"
639,Amina Thai,"169-22 Hillside Avenue, Jamaica, NY",Queens,Zabiha,"169-22 Hillside Avenue, Jamaica, NY 11432, USA"
640,Talk of the Town,"37-21 72nd Street, Jackson Heights, NY",Queens,Zabiha,"37-21 72nd St, Flushing, NY 11372, USA"
641,Queens College Halal Cart,"Kissena Blvd. & Horace Harding Expressway, Flushing, NY",Queens,Zabiha,"Kissena Blvd, Queens, NY, USA"
642,Sagar Chinese,"87-47 Homelawn Street, Jamaica, NY",Queens,Zabiha,"87-47 Homelawn Street, Jamaica, NY 11432, USA"
643,Bakhtar Afghan Halal Kababs,"67-29 Main Street, Queens, NY",Queens,Zabiha,"67-29 Main St, Flushing, NY 11367, USA"
644,Sammy's Halal,"73rd Street & Broadway, Jackson Heights, NY",Queens,Zabiha,"E 73rd St, New York, NY 10021, USA"
645,Chick Inn,"233-16 Hillside Avenue, Queens Village, NY",Queens,Zabiha,"233-16 Hillside Avenue, Jamaica, NY 11427, USA"
646,Tandoori Hut,"119-04 94th Avenue, Richmond Hill, NY",Queens,Zabiha,"119-04 94th Ave, Jamaica, NY 11419, USA"
647,Dhaka Sweets & Restaurant,"168-32 Hillside Avenue, Jamaica, NY",Queens,Zabiha,"168-32 Hillside Avenue, Jamaica, NY 11432, USA"
648,Madina Halal Food Cart,"39-99 Main Street, Flushing, NY",Queens,Zabiha,"36-39 Main St, Flushing, NY 11354, USA"
649,Original American Chicken,"7807 37th Avenue, Jackson Heights, NY",Queens,Zabiha,"78-07 37th Ave, Flushing, NY 11372, USA"
650,Kabab King Diner,"72-23 37th Avenue, Jackson Heights, NY",Queens,Zabiha,"72-23 37th Ave, Flushing, NY 11372, USA"
651,Ali Baba,"183-08 Horace Harding Expressway, Fresh Meadows, NY",Queens,Zabiha,"183-8 Horace Harding Expy, Fresh Meadows, NY 11365, USA"
652,Tawa Tandoor,"35-56 74th Street, Jackson Heights, NY",Queens,Zabiha,"35-56 74th Street, Jackson Heights, NY 11372, USA"
653,Halal Cart,"North Conduit & 130th Street, South Ozone Park, NY",Queens,Zabiha,"N Conduit Ave, Queens, NY, USA"
654,Ghoroa,"168-41 Hillside Avenue, Jamaica, NY",Queens,Zabiha,"168-41 Hillside Avenue, Jamaica, NY 11432, USA"
655,Halal Food/BBQ Chicken,"132-28 41st Road, Flushing, NY",Queens,Zabiha,"132-28 41st Rd, Flushing, NY 11355, USA"
656,Cedars Halal Meat,"41-08 30th Avenue, Astoria, NY",Queens,Zabiha,"41-08 30th Ave, Long Island City, NY 11103, USA"
657,Super China Pagoda,"47-20 30th Avenue, Astoria, NY",Queens,Zabiha,"47-20 30th Ave, Long Island City, NY 11103, USA"
658,Jackson Heights Food Court,"73-07 37th Road, Jackson Heights, NY",Queens,Zabiha,"737 37th Rd, Jackson Heights, NY 11372, USA"
659,Taste of Lahore,"73-10 Northern Blvd., Jackson Heights, NY",Queens,Zabiha,"73-10 Northern Blvd, Flushing, NY 11372, USA"
660,Mia Halal Food,"1057 Cross Bay Blvd., Ozone Park, NY",Queens,Zabiha,"105-7 Cross Bay Blvd, Ozone Park, NY 11417, USA"
661,JFK Airport Travel Plaza,"150th Avenue & 147th Street, Jamaica, NY",Queens,Zabiha,"150th Ave, Queens, NY 11434, USA"
662,Afghan Kebab House #4,"74-16 37th Avenue, Jackson Heights, NY",Queens,Zabiha,"74-16 37th Ave, Jackson Heights, NY 11372, USA"
663,New Sunshine Grill & Restaurant,"255-09 Hillside Avenue, Floral Park, NY",Queens,Zabiha,"255-09 Hillside Avenue, Queens, NY 11004, USA"
664,Bownie,"143-05 45th Avenue, Flushing, NY",Queens,Zabiha,"143-05 45th Ave, Flushing, NY 11355, USA"
665,Roti Boti,"27-09 21st Street, Astoria, NY",Queens,Zabiha,"27-9 21st St, Astoria, NY 11102, USA"
666,Taipan Fusion & Hookah Lounge,"184-22 Horace Harding Expressway South, New York, NY",Queens,Zabiha,"184-22 Horace Harding Expy, Fresh Meadows, NY 11365, USA"
667,Maurya,"63-108 Woodhaven Blvd, Rego Park, NY",Queens,Zabiha,"63-108 Woodhaven Blvd, Rego Park, NY 11374, USA"
668,Eat & Go,"JFK Airport, Terminal 1, Queens, NY",Queens,Zabiha,"Terminal 1, Queens, NY 11430, USA"
669,The Halal Guys,"27-10 Thomson Avenue, Long Island City, NY",Queens,Zabiha,"27-10 Thomson Ave, Long Island City, NY 11101, USA"
670,Layali Beirut,"25-60 Steinway Street, Astoria, NY",Queens,Zabiha,"25-60 Steinway St, Long Island City, NY 11103, USA"
671,Angelina's Panini Bar,"LaGuardia Road, Terminal B, Flushing, NY",Queens,Zabiha,"Terminal B, La Guardia Airport, Flushing, NY 11371, USA"
672,Dera,"72-09 Broadway, Jackson Heights, NY",Queens,Zabiha,"72-09 Broadway, Jackson Heights, NY 11372, USA"
673,Al-Aqsa,"2109 Starling Avenue, Bronx, NY",The Bronx,Zabiha,"2109 Starling Ave, The Bronx, NY 10462, USA"
674,Ziyadeh Halal Meat Market & Grocery,"1903 White Plains Road, Bronx, NY",The Bronx,Zabiha,"1903 White Plains Rd, The Bronx, NY 10462, USA"
675,Norwood Food Co-op,"302 East 206th Street, Bronx, NY",The Bronx,Zabiha,"302 E 206th St, The Bronx, NY 10467, USA"
676,US Fried Chicken,"860 Gerard Avenue, Bronx, NY",The Bronx,Zabiha,"860 Gerard Ave, The Bronx, NY 10451, USA"
677,Musa Halal Chinese,"2023 Westchester Avenue, Bronx, NY",The Bronx,Zabiha,"2023 Westchester Ave, The Bronx, NY 10462, USA"
678,AKS Halal Deli & Grill,"319 East 204th Street, Bronx, NY",The Bronx,Zabiha,"319 E 204th St, The Bronx, NY 10467, USA"
679,Halal Hot Fried Chicken,"1401 White Plains Road, Bronx, NY",The Bronx,Zabiha,"1401 White Plains Rd, The Bronx, NY 10462, USA"
680,Arth AlJanatain,"700 Rhinelander Avenue, Bronx, NY",The Bronx,Zabiha,"700 Rhinelander Ave, The Bronx, NY 10462, USA"
681,Oasis,"1907 White Plains Road, Bronx, NY",The Bronx,Zabiha,"1907 White Plains Rd, The Bronx, NY 10462, USA"
682,Curry & Kabob,"3111 Bainbridge Avenue, Bronx, NY",The Bronx,Zabiha,"3111 Bainbridge Ave, The Bronx, NY 10467, USA"
683,Halal Coffee Shop,"225 Mcclellan Street, Bronx, NY",The Bronx,Zabiha,"225 McClellan St, The Bronx, NY 10456, USA"
684,Fordham Fried Seafood & Chicken,"2468 Grand Concourse, Bronx, NY",The Bronx,Zabiha,"2468 Grand Concourse, The Bronx, NY 10458, USA"
685,Kebab Curry Halal Food,"2165 Starling Avenue, Bronx, NY",The Bronx,Zabiha,"2165 Starling Ave, The Bronx, NY 10462, USA"
686,Mehman Sweets,"1445 Olmstead Avenue, Bronx, NY",The Bronx,Zabiha,"1445 Olmstead Ave, The Bronx, NY 10462, USA"
687,Tajdar,"2475 Boston Road, Bronx, NY",The Bronx,Zabiha,"2475 Boston Rd, The Bronx, NY 10467, USA"
688,Tastebud Foods,"791 Westchester Avenue, Bronx, NY",The Bronx,Zabiha,"791 Westchester Ave, The Bronx, NY 10455, USA"
689,Texas Chicken & Burgers,"21 West Burnside Avenue, Bronx, NY",The Bronx,Zabiha,"21 W Burnside Ave, The Bronx, NY 10453, USA"
690,Texas Chicken & Burgers,"2168 Westchester Avenue, Bronx, NY",The Bronx,Zabiha,"2168 Westchester Ave, The Bronx, NY 10462, USA"
691,Texas Chicken & Burgers,"32 East Kingsbridge Road, Bronx, NY",The Bronx,Zabiha,"32 E Kingsbridge Rd, The Bronx, NY 10468, USA"
692,Texas Chicken & Burgers,"3275 Westchester Avenue, Bronx, NY",The Bronx,Zabiha,"3275 Westchester Ave, The Bronx, NY 10461, USA"
693,Texas Chicken & Burgers,"509 Willis Avenue, Bronx, NY",The Bronx,Zabiha,"509 Willis Ave, The Bronx, NY 10455, USA"
694,Texas Chicken & Burgers,"78 Westchester Avenue, Bronx, NY",The Bronx,Zabiha,"78 Westchester Ave, The Bronx, NY 10461, USA"
695,Halaloo Food,"605 East 187th Street, Unit A, Bronx, NY",The Bronx,Zabiha,"605 E 187th St unit a, The Bronx, NY 10458, USA"
696,Chandni Chowk,"2570 Bronxwood Avenue, Bronx, NY",The Bronx,Zabiha,"2570 Bronxwood Ave, The Bronx, NY 10469, USA"
697,Kennedy Fried Chicken & Pizza,"952 Longwood Avenue, Bronx, NY",The Bronx,Zabiha,"952 Longwood Ave, The Bronx, NY 10455, USA"
698,Caffe Lanka,"2166 Westchester Avenue, Bronx, NY",The Bronx,Zabiha,"2166 Westchester Ave, The Bronx, NY 10462, USA"
699,Kennedy Fried Chicken & Pizza,"2041 Grand Concourse, Bronx, NY",The Bronx,Zabiha,"2041 Grand Concourse, The Bronx, NY 10453, USA"
700,Teuta Qebaptore,"601 East 186th Street, Bronx, NY",The Bronx,Zabiha,"601 E 186th St, The Bronx, NY 10458, USA"
701,Sofra,"2011A Williamsbridge Road, The Bronx, NY",The Bronx,Zabiha,"2011A Williamsbridge Rd, The Bronx, NY 10461, USA"
702,Papaye,"2300 Grand Concourse, Bronx, NY",The Bronx,Zabiha,"2300 Grand Concourse, The Bronx, NY 10458, USA"
703,Bate Nabaya,"860 Melrose Avenue, Bronx, NY",The Bronx,Zabiha,"860 Melrose Ave, The Bronx, NY 10451, USA"
704,Fouta,"1762 Westchester Avenue, Unit A, Bronx, NY",The Bronx,Zabiha,"1762 Westchester Ave unit a, The Bronx, NY 10472, USA"
705,Grin African,"454 East 168th Street, Bronx, NY",The Bronx,Zabiha,"454 E 168th St, The Bronx, NY 10456, USA"
706,Çka Ka Qëllu,"2321 Hughes Avenue, Bronx, NY",The Bronx,Zabiha,"2321 Hughes Ave, The Bronx, NY 10458, USA"
707,Bengal Halal Chinese & Tandoori House,"1209 White Plains Road, Bronx, NY",The Bronx,Zabiha,"1209 White Plains Rd, The Bronx, NY 10472, USA"
708,Aman,"3594 Jerome Avenue, Bronx, NY",The Bronx,Zabiha,"3594 Jerome Ave, The Bronx, NY 10467, USA"
709,Falafel King,"1230 Jerome Avenue, Bronx, NY",The Bronx,Zabiha,"1230 Jerome Ave, The Bronx, NY 10452, USA"
710,Premium Sweets,"2104 Starling Avenue, Bronx, NY",The Bronx,Zabiha,"2104 Starling Ave, The Bronx, NY 10462, USA"
711,King Palace Chicken & Gyros,"5605 Broadway, Bronx, NY",The Bronx,Zabiha,"5605 Broadway, The Bronx, NY 10463, USA"
712,Hungry Bird,"980 Morris Avenue, Bronx, NY",The Bronx,Zabiha,"980 Morris Ave, The Bronx, NY 10456, USA"
713,Kennedy Fried Chicken,"332 East Gun Hill Road, Bronx, NY",The Bronx,Zabiha,"332 E Gun Hill Rd, The Bronx, NY 10467, USA"
714,Moja,"307 East 204th Street, Bronx, NY",The Bronx,Zabiha,"307 E 204th St, The Bronx, NY 10467, USA"
715,Shaad,"2146 Starling Avenue, Bronx, NY",The Bronx,Zabiha,"2146 Starling Ave, The Bronx, NY 10462, USA"
716,Jenny's Roti Shop,"1262 Castle Hill Avenue, Bronx, NY",The Bronx,Zabiha,"1262 Castle Hill Ave, The Bronx, NY 10462, USA"
717,Naan Shack,"1445 Olmstead Avenue, Bronx, NY",The Bronx,Zabiha,"1445 Olmstead Ave, The Bronx, NY 10462, USA"
718,Tito Boss Halal Truck,"100 East Gun Hill Road, Bronx, NY",The Bronx,Zabiha,"100 E Gun Hill Rd, The Bronx, NY 10467, USA"
719,Chicken vs. Lamb Big Taste,"1825 Eastchester Road, Bronx, NY",The Bronx,Zabiha,"Jack D. Weiler Hospital of the Albert Einstein College of Medicine, 1825 Eastchester Rd, The Bronx, NY 10461, USA"
720,Packsun Halal Chicken,"2160 Westchester Avenue, Bronx, NY",The Bronx,Zabiha,"2160 Westchester Ave, The Bronx, NY 10462, USA"
721,Mr. Pizza,"1448 East Avenue, Bronx, NY",The Bronx,Zabiha,"1448 East Ave, The Bronx, NY 10462, USA"
722,The Grill House,"1991 Bronxdale Avenue, Bronx, NY",The Bronx,Zabiha,"1991 Bronxdale Ave, The Bronx, NY 10462, USA"
723,Carifesta,"4251 White Plains Road, Bronx, NY",The Bronx,Zabiha,"4251 White Plains Rd, The Bronx, NY 10466, USA"
724,Alba International Food,"1880 Hylan Blvd., Staten Island, NY",Staten Island,Zabiha,"1880 Hylan Blvd, Staten Island, NY 10305, USA"
725,Shop & Eat,"1686 Forest Avenue, Staten Island, NY",Staten Island,Zabiha,"1686 Forest Ave, Staten Island, NY 10302, USA"
726,Seaside Turkish,"124 Ocean Avenue, Staten Island, NY",Staten Island,Zabiha,"124 Ocean Ave, Staten Island, NY 10305, USA"
727,Famous Falafel,"14 Giffords Lane, Staten Island, NY",Staten Island,Zabiha,"14 Giffords Ln, Staten Island, NY 10308, USA"
728,Papa's Halal Chicken,"1787 Forest Avenue, Staten Island, NY",Staten Island,Zabiha,"1787 Forest Ave, Staten Island, NY 10303, USA"
729,Sahara Xpress,"1203 Hylan Blvd., Staten Island, NY",Staten Island,Zabiha,"1203 Hylan Blvd, Staten Island, NY 10305, USA"
730,Sumac,"1198 Forest Avenue #B, Staten Island, NY",Staten Island,Zabiha,
731,Indian Clove,"2071 Clove Road, Staten Island, NY",Staten Island,Zabiha,"2071 Clove Rd, Staten Island, NY 10304, USA"
732,Papa Chuck Halal Chicken,"229 Broad Street, Staten Island, NY",Staten Island,Zabiha,"229 Broad St, Staten Island, NY 10304, USA"
733,My Pizza,"755 Targee Street, Staten Island, NY",Staten Island,Zabiha,"755 Targee St, Staten Island, NY 10304, USA"
734,Halal Crown Chicken,"2047 Richmond Terrace, Staten Island, NY",Staten Island,Zabiha,"2047 Richmond Terrace, Staten Island, NY 10302, USA"
735,Mandi House,"58 Richmond Terrace, Staten Island, NY",Staten Island,Zabiha,"58 Richmond Terrace, Staten Island, NY 10301, USA"
736,Crown Fried Chicken & Burgers,"2047 Richmond Terrace, Staten Island, NY",Staten Island,Zabiha,"2047 Richmond Terrace, Staten Island, NY 10302, USA"
737,Crown Peri Peri Chicken & Grill,"1970 Victory Blvd., Staten Island, NY",Staten Island,Zabiha,"1970 Victory Blvd, Staten Island, NY 10314, USA"
738,Bistro Grill,"3972 Hylan Blvd., Staten Island, NY",Staten Island,Zabiha,"3972 Hylan Blvd, Staten Island, NY 10308, USA"
739,King Gyro,"1970 Victory Blvd., Staten Island, NY",Staten Island,Zabiha,"1970 Victory Blvd, Staten Island, NY 10314, USA"
740,New Asha,"322 Victory Blvd., Staten Island, NY",Staten Island,Zabiha,"322 Victory Blvd, Staten Island, NY 10301, USA"
741,Al-Humza,"629 Richmond Road, Staten Island, NY",Staten Island,Zabiha,"629 Richmond Rd, Staten Island, NY 10304, USA"
742,Kebab & Gyro King,"1267 Forest Avenue, Staten Island, NY",Staten Island,Zabiha,"1267 Forest Ave, Staten Island, NY 10302, USA"
743,Ali Baba Grill,"774 Port Richmond Avenue, Staten Island, NY",Staten Island,Zabiha,"774 Port Richmond Ave, Staten Island, NY 10302, USA"
744,Pizzken,"1775 Richmond Road, Staten Island, NY",Staten Island,Zabiha,"1775 Richmond Rd, Staten Island, NY 10306, USA"
745,The Halal Guys,W 53rd Street & 7th Ave New York 10019,New York City,Zomato,"W 53rd St, New York, NY 10019, USA"
746,Kailash Parbat,"99 Lexington Avenue, New York 10016",New York City,Zomato,"99 Lexington Ave, New York, NY 10016, USA"
747,Yemen Café and Restaurant,"176 Atlantic Avenue, Brooklyn 11201",New York City,Zomato,"176 Atlantic Ave, Brooklyn, NY 11201, USA"
748,Pars Grill House & Bar,"249 W 26th Street, New York 10001",New York City,Zomato,"249 W 26th St, New York, NY 10001, USA"
749,Heart of India,"79 2nd Avenue, New York 10003",New York City,Zomato,"79 2nd Ave, New York, NY 10003, USA"
750,Tamba Indian Grill & Bar,"103 Lexington Avenue, New York 10016",New York City,Zomato,"103 Lexington Ave, New York, NY 10016, USA"
751,The Soul Spot,"302 Atlantic Avenue, Brooklyn 11201",New York City,Zomato,"302 Atlantic Ave, Brooklyn, NY 11201, USA"
752,Mint Masala,95 Macdougal Street 10012,New York City,Zomato,"95 MacDougal St, New York, NY 10012, USA"
753,Haandi,113 Lexington Avenue 10016,New York City,Zomato,"113 Lexington Ave, New York, NY 10016, USA"
754,Bombay Masala Restaurant,"Times Square, 148 W 49th Street, New York 10019",New York City,Zomato,"148 W 49th St, New York, NY 10019, USA"
755,The Halal Guys,"722 Amsterdam Avenue, New York, NY 10025",New York City,Zomato,"722 Amsterdam Ave, New York, NY 10025, USA"
756,Sheezan Restaurant,"183 Church Street, New York, NY 10007",New York City,Zomato,"183 Church St, New York, NY 10007, USA"
757,Tripoli,"156 Atlantic Avenue, Brooklyn, Cobble Hill, New York City 11201",New York City,Zomato,"156 Atlantic Ave, Brooklyn, NY 11201, USA"
758,Patiala,371 West 34th Street 10001,New York City,Zomato,"371 W 34th St, New York, NY 10001, USA"
759,Tangra Masala,"87-09 Grand Avenue, Queens 11373",New York City,Zomato,"87-09 Grand Ave, Queens, NY 11373, USA"
760,Kabab King,"7301 37th Rd, Jackson Heights 11372",New York City,Zomato,"73-01 37th Rd, Flushing, NY 11372, USA"
761,Salt & Pepper,"139 W 33rd Street, New York 10001",New York City,Zomato,"139 W 33rd St, New York, NY 10001, USA"
762,Fatima's Halal Kitchen,"2525 Broadway, Astoria 11106",New York City,Zomato,"25-25 Broadway, Queens, NY 11106, USA"
763,Curry Hut,"534 9th Avenue, New York, NY",New York City,Zomato,"534 9th Ave, New York, NY 10018, USA"
764,Joy Curry & Tandoor Restaurant,"148 E 46th Street, New York 10017",New York City,Zomato,"148 E 46th St, New York, NY 10017, USA"
765,The Halal Guys,W 53rd Street & 7th Ave New York 10019,New York City,Zomato,"W 53rd St, New York, NY 10019, USA"
766,Kailash Parbat,"99 Lexington Avenue, New York 10016",New York City,Zomato,"99 Lexington Ave, New York, NY 10016, USA"
767,Yemen Café and Restaurant,"176 Atlantic Avenue, Brooklyn 11201",New York City,Zomato,"176 Atlantic Ave, Brooklyn, NY 11201, USA"
768,Pars Grill House & Bar,"249 W 26th Street, New York 10001",New York City,Zomato,"249 W 26th St, New York, NY 10001, USA"
769,Heart of India,"79 2nd Avenue, New York 10003",New York City,Zomato,"79 2nd Ave, New York, NY 10003, USA"
770,Tamba Indian Grill & Bar,"103 Lexington Avenue, New York 10016",New York City,Zomato,"103 Lexington Ave, New York, NY 10016, USA"
771,The Soul Spot,"302 Atlantic Avenue, Brooklyn 11201",New York City,Zomato,"302 Atlantic Ave, Brooklyn, NY 11201, USA"
772,Mint Masala,95 Macdougal Street 10012,New York City,Zomato,"95 MacDougal St, New York, NY 10012, USA"
773,Haandi,113 Lexington Avenue 10016,New York City,Zomato,"113 Lexington Ave, New York, NY 10016, USA"
774,Bombay Masala Restaurant,"Times Square, 148 W 49th Street, New York 10019",New York City,Zomato,"148 W 49th St, New York, NY 10019, USA"
775,The Halal Guys,"722 Amsterdam Avenue, New York, NY 10025",New York City,Zomato,"722 Amsterdam Ave, New York, NY 10025, USA"
776,Sheezan Restaurant,"183 Church Street, New York, NY 10007",New York City,Zomato,"183 Church St, New York, NY 10007, USA"
777,Tripoli,"156 Atlantic Avenue, Brooklyn, Cobble Hill, New York City 11201",New York City,Zomato,"156 Atlantic Ave, Brooklyn, NY 11201, USA"
778,Patiala,371 West 34th Street 10001,New York City,Zomato,"371 W 34th St, New York, NY 10001, USA"
779,Tangra Masala,"87-09 Grand Avenue, Queens 11373",New York City,Zomato,"87-09 Grand Ave, Queens, NY 11373, USA"
780,Kabab King,"7301 37th Rd, Jackson Heights 11372",New York City,Zomato,"73-01 37th Rd, Flushing, NY 11372, USA"
781,Salt & Pepper,"139 W 33rd Street, New York 10001",New York City,Zomato,"139 W 33rd St, New York, NY 10001, USA"
782,Fatima's Halal Kitchen,"2525 Broadway, Astoria 11106",New York City,Zomato,"25-25 Broadway, Queens, NY 11106, USA"
783,Curry Hut,"534 9th Avenue, New York, NY",New York City,Zomato,"534 9th Ave, New York, NY 10018, USA"
784,Joy Curry & Tandoor Restaurant,"148 E 46th Street, New York 10017",New York City,Zomato,"148 E 46th St, New York, NY 10017, USA"
785,The Halal Guys,W 53rd Street & 7th Ave New York 10019,New York City,Zomato,"W 53rd St, New York, NY 10019, USA"
786,Kailash Parbat,"99 Lexington Avenue, New York 10016",New York City,Zomato,"99 Lexington Ave, New York, NY 10016, USA"
787,Yemen Café and Restaurant,"176 Atlantic Avenue, Brooklyn 11201",New York City,Zomato,"176 Atlantic Ave, Brooklyn, NY 11201, USA"
788,Pars Grill House & Bar,"249 W 26th Street, New York 10001",New York City,Zomato,"249 W 26th St, New York, NY 10001, USA"
789,Heart of India,"79 2nd Avenue, New York 10003",New York City,Zomato,"79 2nd Ave, New York, NY 10003, USA"
790,Tamba Indian Grill & Bar,"103 Lexington Avenue, New York 10016",New York City,Zomato,"103 Lexington Ave, New York, NY 10016, USA"
791,The Soul Spot,"302 Atlantic Avenue, Brooklyn 11201",New York City,Zomato,"302 Atlantic Ave, Brooklyn, NY 11201, USA"
792,Mint Masala,95 Macdougal Street 10012,New York City,Zomato,"95 MacDougal St, New York, NY 10012, USA"
793,Haandi,113 Lexington Avenue 10016,New York City,Zomato,"113 Lexington Ave, New York, NY 10016, USA"
794,Bombay Masala Restaurant,"Times Square, 148 W 49th Street, New York 10019",New York City,Zomato,"148 W 49th St, New York, NY 10019, USA"
795,The Halal Guys,"722 Amsterdam Avenue, New York, NY 10025",New York City,Zomato,"722 Amsterdam Ave, New York, NY 10025, USA"
796,Sheezan Restaurant,"183 Church Street, New York, NY 10007",New York City,Zomato,"183 Church St, New York, NY 10007, USA"
797,Tripoli,"156 Atlantic Avenue, Brooklyn, Cobble Hill, New York City 11201",New York City,Zomato,"156 Atlantic Ave, Brooklyn, NY 11201, USA"
798,Patiala,371 West 34th Street 10001,New York City,Zomato,"371 W 34th St, New York, NY 10001, USA"
799,Tangra Masala,"87-09 Grand Avenue, Queens 11373",New York City,Zomato,"87-09 Grand Ave, Queens, NY 11373, USA"
800,Kabab King,"7301 37th Rd, Jackson Heights 11372",New York City,Zomato,"73-01 37th Rd, Flushing, NY 11372, USA"
801,Salt & Pepper,"139 W 33rd Street, New York 10001",New York City,Zomato,"139 W 33rd St, New York, NY 10001, USA"
802,Fatima's Halal Kitchen,"2525 Broadway, Astoria 11106",New York City,Zomato,"25-25 Broadway, Queens, NY 11106, USA"
803,Curry Hut,"534 9th Avenue, New York, NY",New York City,Zomato,"534 9th Ave, New York, NY 10018, USA"
804,Joy Curry & Tandoor Restaurant,"148 E 46th Street, New York 10017",New York City,Zomato,"148 E 46th St, New York, NY 10017, USA"
805,The Halal Guys,W 53rd Street & 7th Ave New York 10019,New York City,Zomato,"W 53rd St, New York, NY 10019, USA"
806,Kailash Parbat,"99 Lexington Avenue, New York 10016",New York City,Zomato,"99 Lexington Ave, New York, NY 10016, USA"
807,Yemen Café and Restaurant,"176 Atlantic Avenue, Brooklyn 11201",New York City,Zomato,"176 Atlantic Ave, Brooklyn, NY 11201, USA"
808,Pars Grill House & Bar,"249 W 26th Street, New York 10001",New York City,Zomato,"249 W 26th St, New York, NY 10001, USA"
809,Heart of India,"79 2nd Avenue, New York 10003",New York City,Zomato,"79 2nd Ave, New York, NY 10003, USA"
810,Tamba Indian Grill & Bar,"103 Lexington Avenue, New York 10016",New York City,Zomato,"103 Lexington Ave, New York, NY 10016, USA"
811,The Soul Spot,"302 Atlantic Avenue, Brooklyn 11201",New York City,Zomato,"302 Atlantic Ave, Brooklyn, NY 11201, USA"
812,Mint Masala,95 Macdougal Street 10012,New York City,Zomato,"95 MacDougal St, New York, NY 10012, USA"
813,Haandi,113 Lexington Avenue 10016,New York City,Zomato,"113 Lexington Ave, New York, NY 10016, USA"
814,Bombay Masala Restaurant,"Times Square, 148 W 49th Street, New York 10019",New York City,Zomato,"148 W 49th St, New York, NY 10019, USA"
815,The Halal Guys,"722 Amsterdam Avenue, New York, NY 10025",New York City,Zomato,"722 Amsterdam Ave, New York, NY 10025, USA"
816,Sheezan Restaurant,"183 Church Street, New York, NY 10007",New York City,Zomato,"183 Church St, New York, NY 10007, USA"
817,Tripoli,"156 Atlantic Avenue, Brooklyn, Cobble Hill, New York City 11201",New York City,Zomato,"156 Atlantic Ave, Brooklyn, NY 11201, USA"
818,Patiala,371 West 34th Street 10001,New York City,Zomato,"371 W 34th St, New York, NY 10001, USA"
819,Tangra Masala,"87-09 Grand Avenue, Queens 11373",New York City,Zomato,"87-09 Grand Ave, Queens, NY 11373, USA"
820,Kabab King,"7301 37th Rd, Jackson Heights 11372",New York City,Zomato,"73-01 37th Rd, Flushing, NY 11372, USA"
821,Salt & Pepper,"139 W 33rd Street, New York 10001",New York City,Zomato,"139 W 33rd St, New York, NY 10001, USA"
822,Fatima's Halal Kitchen,"2525 Broadway, Astoria 11106",New York City,Zomato,"25-25 Broadway, Queens, NY 11106, USA"
823,Curry Hut,"534 9th Avenue, New York, NY",New York City,Zomato,"534 9th Ave, New York, NY 10018, USA"
824,Joy Curry & Tandoor Restaurant,"148 E 46th Street, New York 10017",New York City,Zomato,"148 E 46th St, New York, NY 10017, USA"
825,The Halal Guys,W 53rd Street & 7th Ave New York 10019,New York City,Zomato,"W 53rd St, New York, NY 10019, USA"
826,Kailash Parbat,"99 Lexington Avenue, New York 10016",New York City,Zomato,"99 Lexington Ave, New York, NY 10016, USA"
827,Yemen Café and Restaurant,"176 Atlantic Avenue, Brooklyn 11201",New York City,Zomato,"176 Atlantic Ave, Brooklyn, NY 11201, USA"
828,Pars Grill House & Bar,"249 W 26th Street, New York 10001",New York City,Zomato,"249 W 26th St, New York, NY 10001, USA"
829,Heart of India,"79 2nd Avenue, New York 10003",New York City,Zomato,"79 2nd Ave, New York, NY 10003, USA"
830,Tamba Indian Grill & Bar,"103 Lexington Avenue, New York 10016",New York City,Zomato,"103 Lexington Ave, New York, NY 10016, USA"
831,The Soul Spot,"302 Atlantic Avenue, Brooklyn 11201",New York City,Zomato,"302 Atlantic Ave, Brooklyn, NY 11201, USA"
832,Mint Masala,95 Macdougal Street 10012,New York City,Zomato,"95 MacDougal St, New York, NY 10012, USA"
833,Haandi,113 Lexington Avenue 10016,New York City,Zomato,"113 Lexington Ave, New York, NY 10016, USA"
834,Bombay Masala Restaurant,"Times Square, 148 W 49th Street, New York 10019",New York City,Zomato,"148 W 49th St, New York, NY 10019, USA"
835,The Halal Guys,"722 Amsterdam Avenue, New York, NY 10025",New York City,Zomato,"722 Amsterdam Ave, New York, NY 10025, USA"
836,Sheezan Restaurant,"183 Church Street, New York, NY 10007",New York City,Zomato,"183 Church St, New York, NY 10007, USA"
837,Tripoli,"156 Atlantic Avenue, Brooklyn, Cobble Hill, New York City 11201",New York City,Zomato,"156 Atlantic Ave, Brooklyn, NY 11201, USA"
838,Patiala,371 West 34th Street 10001,New York City,Zomato,"371 W 34th St, New York, NY 10001, USA"
839,Tangra Masala,"87-09 Grand Avenue, Queens 11373",New York City,Zomato,"87-09 Grand Ave, Queens, NY 11373, USA"
840,Kabab King,"7301 37th Rd, Jackson Heights 11372",New York City,Zomato,"73-01 37th Rd, Flushing, NY 11372, USA"
841,Salt & Pepper,"139 W 33rd Street, New York 10001",New York City,Zomato,"139 W 33rd St, New York, NY 10001, USA"
842,Fatima's Halal Kitchen,"2525 Broadway, Astoria 11106",New York City,Zomato,"25-25 Broadway, Queens, NY 11106, USA"
843,Curry Hut,"534 9th Avenue, New York, NY",New York City,Zomato,"534 9th Ave, New York, NY 10018, USA"
844,Joy Curry & Tandoor Restaurant,"148 E 46th Street, New York 10017",New York City,Zomato,"148 E 46th St, New York, NY 10017, USA"
845,The Halal Guys,W 53rd Street & 7th Ave New York 10019,New York City,Zomato,"W 53rd St, New York, NY 10019, USA"
846,Kailash Parbat,"99 Lexington Avenue, New York 10016",New York City,Zomato,"99 Lexington Ave, New York, NY 10016, USA"
847,Yemen Café and Restaurant,"176 Atlantic Avenue, Brooklyn 11201",New York City,Zomato,"176 Atlantic Ave, Brooklyn, NY 11201, USA"
848,Pars Grill House & Bar,"249 W 26th Street, New York 10001",New York City,Zomato,"249 W 26th St, New York, NY 10001, USA"
849,Heart of India,"79 2nd Avenue, New York 10003",New York City,Zomato,"79 2nd Ave, New York, NY 10003, USA"
850,Tamba Indian Grill & Bar,"103 Lexington Avenue, New York 10016",New York City,Zomato,"103 Lexington Ave, New York, NY 10016, USA"
851,The Soul Spot,"302 Atlantic Avenue, Brooklyn 11201",New York City,Zomato,"302 Atlantic Ave, Brooklyn, NY 11201, USA"
852,Mint Masala,95 Macdougal Street 10012,New York City,Zomato,"95 MacDougal St, New York, NY 10012, USA"
853,Haandi,113 Lexington Avenue 10016,New York City,Zomato,"113 Lexington Ave, New York, NY 10016, USA"
854,Bombay Masala Restaurant,"Times Square, 148 W 49th Street, New York 10019",New York City,Zomato,"148 W 49th St, New York, NY 10019, USA"
855,The Halal Guys,"722 Amsterdam Avenue, New York, NY 10025",New York City,Zomato,"722 Amsterdam Ave, New York, NY 10025, USA"
856,Sheezan Restaurant,"183 Church Street, New York, NY 10007",New York City,Zomato,"183 Church St, New York, NY 10007, USA"
857,Tripoli,"156 Atlantic Avenue, Brooklyn, Cobble Hill, New York City 11201",New York City,Zomato,"156 Atlantic Ave, Brooklyn, NY 11201, USA"
858,Patiala,371 West 34th Street 10001,New York City,Zomato,"371 W 34th St, New York, NY 10001, USA"
859,Tangra Masala,"87-09 Grand Avenue, Queens 11373",New York City,Zomato,"87-09 Grand Ave, Queens, NY 11373, USA"
860,Kabab King,"7301 37th Rd, Jackson Heights 11372",New York City,Zomato,"73-01 37th Rd, Flushing, NY 11372, USA"
861,Salt & Pepper,"139 W 33rd Street, New York 10001",New York City,Zomato,"139 W 33rd St, New York, NY 10001, USA"
862,Fatima's Halal Kitchen,"2525 Broadway, Astoria 11106",New York City,Zomato,"25-25 Broadway, Queens, NY 11106, USA"
863,Curry Hut,"534 9th Avenue, New York, NY",New York City,Zomato,"534 9th Ave, New York, NY 10018, USA"
864,Joy Curry & Tandoor Restaurant,"148 E 46th Street, New York 10017",New York City,Zomato,"148 E 46th St, New York, NY 10017, USA"
865,The Halal Guys,W 53rd Street & 7th Ave New York 10019,New York City,Zomato,"W 53rd St, New York, NY 10019, USA"
866,Kailash Parbat,"99 Lexington Avenue, New York 10016",New York City,Zomato,"99 Lexington Ave, New York, NY 10016, USA"
867,Yemen Café and Restaurant,"176 Atlantic Avenue, Brooklyn 11201",New York City,Zomato,"176 Atlantic Ave, Brooklyn, NY 11201, USA"
868,Pars Grill House & Bar,"249 W 26th Street, New York 10001",New York City,Zomato,"249 W 26th St, New York, NY 10001, USA"
869,Heart of India,"79 2nd Avenue, New York 10003",New York City,Zomato,"79 2nd Ave, New York, NY 10003, USA"
870,Tamba Indian Grill & Bar,"103 Lexington Avenue, New York 10016",New York City,Zomato,"103 Lexington Ave, New York, NY 10016, USA"
871,The Soul Spot,"302 Atlantic Avenue, Brooklyn 11201",New York City,Zomato,"302 Atlantic Ave, Brooklyn, NY 11201, USA"
872,Mint Masala,95 Macdougal Street 10012,New York City,Zomato,"95 MacDougal St, New York, NY 10012, USA"
873,Haandi,113 Lexington Avenue 10016,New York City,Zomato,"113 Lexington Ave, New York, NY 10016, USA"
874,Bombay Masala Restaurant,"Times Square, 148 W 49th Street, New York 10019",New York City,Zomato,"148 W 49th St, New York, NY 10019, USA"
875,The Halal Guys,"722 Amsterdam Avenue, New York, NY 10025",New York City,Zomato,"722 Amsterdam Ave, New York, NY 10025, USA"
876,Sheezan Restaurant,"183 Church Street, New York, NY 10007",New York City,Zomato,"183 Church St, New York, NY 10007, USA"
877,Tripoli,"156 Atlantic Avenue, Brooklyn, Cobble Hill, New York City 11201",New York City,Zomato,"156 Atlantic Ave, Brooklyn, NY 11201, USA"
878,Patiala,371 West 34th Street 10001,New York City,Zomato,"371 W 34th St, New York, NY 10001, USA"
879,Tangra Masala,"87-09 Grand Avenue, Queens 11373",New York City,Zomato,"87-09 Grand Ave, Queens, NY 11373, USA"
880,Kabab King,"7301 37th Rd, Jackson Heights 11372",New York City,Zomato,"73-01 37th Rd, Flushing, NY 11372, USA"
881,Salt & Pepper,"139 W 33rd Street, New York 10001",New York City,Zomato,"139 W 33rd St, New York, NY 10001, USA"
882,Fatima's Halal Kitchen,"2525 Broadway, Astoria 11106",New York City,Zomato,"25-25 Broadway, Queens, NY 11106, USA"
883,Curry Hut,"534 9th Avenue, New York, NY",New York City,Zomato,"534 9th Ave, New York, NY 10018, USA"
884,Joy Curry & Tandoor Restaurant,"148 E 46th Street, New York 10017",New York City,Zomato,"148 E 46th St, New York, NY 10017, USA"
885,The Halal Guys,W 53rd Street & 7th Ave New York 10019,New York City,Zomato,"W 53rd St, New York, NY 10019, USA"
886,Kailash Parbat,"99 Lexington Avenue, New York 10016",New York City,Zomato,"99 Lexington Ave, New York, NY 10016, USA"
887,Yemen Café and Restaurant,"176 Atlantic Avenue, Brooklyn 11201",New York City,Zomato,"176 Atlantic Ave, Brooklyn, NY 11201, USA"
888,Pars Grill House & Bar,"249 W 26th Street, New York 10001",New York City,Zomato,"249 W 26th St, New York, NY 10001, USA"
889,Heart of India,"79 2nd Avenue, New York 10003",New York City,Zomato,"79 2nd Ave, New York, NY 10003, USA"
890,Tamba Indian Grill & Bar,"103 Lexington Avenue, New York 10016",New York City,Zomato,"103 Lexington Ave, New York, NY 10016, USA"
891,The Soul Spot,"302 Atlantic Avenue, Brooklyn 11201",New York City,Zomato,"302 Atlantic Ave, Brooklyn, NY 11201, USA"
892,Mint Masala,95 Macdougal Street 10012,New York City,Zomato,"95 MacDougal St, New York, NY 10012, USA"
893,Haandi,113 Lexington Avenue 10016,New York City,Zomato,"113 Lexington Ave, New York, NY 10016, USA"
894,Bombay Masala Restaurant,"Times Square, 148 W 49th Street, New York 10019",New York City,Zomato,"148 W 49th St, New York, NY 10019, USA"
895,The Halal Guys,"722 Amsterdam Avenue, New York, NY 10025",New York City,Zomato,"722 Amsterdam Ave, New York, NY 10025, USA"
896,Sheezan Restaurant,"183 Church Street, New York, NY 10007",New York City,Zomato,"183 Church St, New York, NY 10007, USA"
897,Tripoli,"156 Atlantic Avenue, Brooklyn, Cobble Hill, New York City 11201",New York City,Zomato,"156 Atlantic Ave, Brooklyn, NY 11201, USA"
898,Patiala,371 West 34th Street 10001,New York City,Zomato,"371 W 34th St, New York, NY 10001, USA"
899,Tangra Masala,"87-09 Grand Avenue, Queens 11373",New York City,Zomato,"87-09 Grand Ave, Queens, NY 11373, USA"
900,Kabab King,"7301 37th Rd, Jackson Heights 11372",New York City,Zomato,"73-01 37th Rd, Flushing, NY 11372, USA"
901,Salt & Pepper,"139 W 33rd Street, New York 10001",New York City,Zomato,"139 W 33rd St, New York, NY 10001, USA"
902,Fatima's Halal Kitchen,"2525 Broadway, Astoria 11106",New York City,Zomato,"25-25 Broadway, Queens, NY 11106, USA"
903,Curry Hut,"534 9th Avenue, New York, NY",New York City,Zomato,"534 9th Ave, New York, NY 10018, USA"
904,Joy Curry & Tandoor Restaurant,"148 E 46th Street, New York 10017",New York City,Zomato,"148 E 46th St, New York, NY 10017, USA"
905,The Halal Guys,W 53rd Street & 7th Ave New York 10019,New York City,Zomato,"W 53rd St, New York, NY 10019, USA"
906,Kailash Parbat,"99 Lexington Avenue, New York 10016",New York City,Zomato,"99 Lexington Ave, New York, NY 10016, USA"
907,Yemen Café and Restaurant,"176 Atlantic Avenue, Brooklyn 11201",New York City,Zomato,"176 Atlantic Ave, Brooklyn, NY 11201, USA"
908,Pars Grill House & Bar,"249 W 26th Street, New York 10001",New York City,Zomato,"249 W 26th St, New York, NY 10001, USA"
909,Heart of India,"79 2nd Avenue, New York 10003",New York City,Zomato,"79 2nd Ave, New York, NY 10003, USA"
910,Tamba Indian Grill & Bar,"103 Lexington Avenue, New York 10016",New York City,Zomato,"103 Lexington Ave, New York, NY 10016, USA"
911,The Soul Spot,"302 Atlantic Avenue, Brooklyn 11201",New York City,Zomato,"302 Atlantic Ave, Brooklyn, NY 11201, USA"
912,Mint Masala,95 Macdougal Street 10012,New York City,Zomato,"95 MacDougal St, New York, NY 10012, USA"
913,Haandi,113 Lexington Avenue 10016,New York City,Zomato,"113 Lexington Ave, New York, NY 10016, USA"
914,Bombay Masala Restaurant,"Times Square, 148 W 49th Street, New York 10019",New York City,Zomato,"148 W 49th St, New York, NY 10019, USA"
915,The Halal Guys,"722 Amsterdam Avenue, New York, NY 10025",New York City,Zomato,"722 Amsterdam Ave, New York, NY 10025, USA"
916,Sheezan Restaurant,"183 Church Street, New York, NY 10007",New York City,Zomato,"183 Church St, New York, NY 10007, USA"
917,Tripoli,"156 Atlantic Avenue, Brooklyn, Cobble Hill, New York City 11201",New York City,Zomato,"156 Atlantic Ave, Brooklyn, NY 11201, USA"
918,Patiala,371 West 34th Street 10001,New York City,Zomato,"371 W 34th St, New York, NY 10001, USA"
919,Tangra Masala,"87-09 Grand Avenue, Queens 11373",New York City,Zomato,"87-09 Grand Ave, Queens, NY 11373, USA"
920,Kabab King,"7301 37th Rd, Jackson Heights 11372",New York City,Zomato,"73-01 37th Rd, Flushing, NY 11372, USA"
921,Salt & Pepper,"139 W 33rd Street, New York 10001",New York City,Zomato,"139 W 33rd St, New York, NY 10001, USA"
922,Fatima's Halal Kitchen,"2525 Broadway, Astoria 11106",New York City,Zomato,"25-25 Broadway, Queens, NY 11106, USA"
923,Curry Hut,"534 9th Avenue, New York, NY",New York City,Zomato,"534 9th Ave, New York, NY 10018, USA"
924,Joy Curry & Tandoor Restaurant,"148 E 46th Street, New York 10017",New York City,Zomato,"148 E 46th St, New York, NY 10017, USA"
925,The Halal Guys,W 53rd Street & 7th Ave New York 10019,New York City,Zomato,"W 53rd St, New York, NY 10019, USA"
926,Kailash Parbat,"99 Lexington Avenue, New York 10016",New York City,Zomato,"99 Lexington Ave, New York, NY 10016, USA"
927,Yemen Café and Restaurant,"176 Atlantic Avenue, Brooklyn 11201",New York City,Zomato,"176 Atlantic Ave, Brooklyn, NY 11201, USA"
928,Pars Grill House & Bar,"249 W 26th Street, New York 10001",New York City,Zomato,"249 W 26th St, New York, NY 10001, USA"
929,Heart of India,"79 2nd Avenue, New York 10003",New York City,Zomato,"79 2nd Ave, New York, NY 10003, USA"
930,Tamba Indian Grill & Bar,"103 Lexington Avenue, New York 10016",New York City,Zomato,"103 Lexington Ave, New York, NY 10016, USA"
931,The Soul Spot,"302 Atlantic Avenue, Brooklyn 11201",New York City,Zomato,"302 Atlantic Ave, Brooklyn, NY 11201, USA"
932,Mint Masala,95 Macdougal Street 10012,New York City,Zomato,"95 MacDougal St, New York, NY 10012, USA"
933,Haandi,113 Lexington Avenue 10016,New York City,Zomato,"113 Lexington Ave, New York, NY 10016, USA"
934,Bombay Masala Restaurant,"Times Square, 148 W 49th Street, New York 10019",New York City,Zomato,"148 W 49th St, New York, NY 10019, USA"
935,The Halal Guys,"722 Amsterdam Avenue, New York, NY 10025",New York City,Zomato,"722 Amsterdam Ave, New York, NY 10025, USA"
936,Sheezan Restaurant,"183 Church Street, New York, NY 10007",New York City,Zomato,"183 Church St, New York, NY 10007, USA"
937,Tripoli,"156 Atlantic Avenue, Brooklyn, Cobble Hill, New York City 11201",New York City,Zomato,"156 Atlantic Ave, Brooklyn, NY 11201, USA"
938,Patiala,371 West 34th Street 10001,New York City,Zomato,"371 W 34th St, New York, NY 10001, USA"
939,Tangra Masala,"87-09 Grand Avenue, Queens 11373",New York City,Zomato,"87-09 Grand Ave, Queens, NY 11373, USA"
940,Kabab King,"7301 37th Rd, Jackson Heights 11372",New York City,Zomato,"73-01 37th Rd, Flushing, NY 11372, USA"
941,Salt & Pepper,"139 W 33rd Street, New York 10001",New York City,Zomato,"139 W 33rd St, New York, NY 10001, USA"
942,Fatima's Halal Kitchen,"2525 Broadway, Astoria 11106",New York City,Zomato,"25-25 Broadway, Queens, NY 11106, USA"
943,Curry Hut,"534 9th Avenue, New York, NY",New York City,Zomato,"534 9th Ave, New York, NY 10018, USA"
944,Joy Curry & Tandoor Restaurant,"148 E 46th Street, New York 10017",New York City,Zomato,"148 E 46th St, New York, NY 10017, USA"
945,The Halal Guys,W 53rd Street & 7th Ave New York 10019,New York City,Zomato,"W 53rd St, New York, NY 10019, USA"
946,Kailash Parbat,"99 Lexington Avenue, New York 10016",New York City,Zomato,"99 Lexington Ave, New York, NY 10016, USA"
947,Yemen Café and Restaurant,"176 Atlantic Avenue, Brooklyn 11201",New York City,Zomato,"176 Atlantic Ave, Brooklyn, NY 11201, USA"
948,Pars Grill House & Bar,"249 W 26th Street, New York 10001",New York City,Zomato,"249 W 26th St, New York, NY 10001, USA"
949,Heart of India,"79 2nd Avenue, New York 10003",New York City,Zomato,"79 2nd Ave, New York, NY 10003, USA"
950,Tamba Indian Grill & Bar,"103 Lexington Avenue, New York 10016",New York City,Zomato,"103 Lexington Ave, New York, NY 10016, USA"
951,The Soul Spot,"302 Atlantic Avenue, Brooklyn 11201",New York City,Zomato,"302 Atlantic Ave, Brooklyn, NY 11201, USA"
952,Mint Masala,95 Macdougal Street 10012,New York City,Zomato,"95 MacDougal St, New York, NY 10012, USA"
953,Haandi,113 Lexington Avenue 10016,New York City,Zomato,"113 Lexington Ave, New York, NY 10016, USA"
954,Bombay Masala Restaurant,"Times Square, 148 W 49th Street, New York 10019",New York City,Zomato,"148 W 49th St, New York, NY 10019, USA"
955,The Halal Guys,"722 Amsterdam Avenue, New York, NY 10025",New York City,Zomato,"722 Amsterdam Ave, New York, NY 10025, USA"
956,Sheezan Restaurant,"183 Church Street, New York, NY 10007",New York City,Zomato,"183 Church St, New York, NY 10007, USA"
957,Tripoli,"156 Atlantic Avenue, Brooklyn, Cobble Hill, New York City 11201",New York City,Zomato,"156 Atlantic Ave, Brooklyn, NY 11201, USA"
958,Patiala,371 West 34th Street 10001,New York City,Zomato,"371 W 34th St, New York, NY 10001, USA"
959,Tangra Masala,"87-09 Grand Avenue, Queens 11373",New York City,Zomato,"87-09 Grand Ave, Queens, NY 11373, USA"
960,Kabab King,"7301 37th Rd, Jackson Heights 11372",New York City,Zomato,"73-01 37th Rd, Flushing, NY 11372, USA"
961,Salt & Pepper,"139 W 33rd Street, New York 10001",New York City,Zomato,"139 W 33rd St, New York, NY 10001, USA"
962,Fatima's Halal Kitchen,"2525 Broadway, Astoria 11106",New York City,Zomato,"25-25 Broadway, Queens, NY 11106, USA"
963,Curry Hut,"534 9th Avenue, New York, NY",New York City,Zomato,"534 9th Ave, New York, NY 10018, USA"
964,Joy Curry & Tandoor Restaurant,"148 E 46th Street, New York 10017",New York City,Zomato,"148 E 46th St, New York, NY 10017, USA"
965,The Halal Guys,W 53rd Street & 7th Ave New York 10019,New York City,Zomato,"W 53rd St, New York, NY 10019, USA"
966,Kailash Parbat,"99 Lexington Avenue, New York 10016",New York City,Zomato,"99 Lexington Ave, New York, NY 10016, USA"
967,Yemen Café and Restaurant,"176 Atlantic Avenue, Brooklyn 11201",New York City,Zomato,"176 Atlantic Ave, Brooklyn, NY 11201, USA"
968,Pars Grill House & Bar,"249 W 26th Street, New York 10001",New York City,Zomato,"249 W 26th St, New York, NY 10001, USA"
969,Heart of India,"79 2nd Avenue, New York 10003",New York City,Zomato,"79 2nd Ave, New York, NY 10003, USA"
970,Tamba Indian Grill & Bar,"103 Lexington Avenue, New York 10016",New York City,Zomato,"103 Lexington Ave, New York, NY 10016, USA"
971,The Soul Spot,"302 Atlantic Avenue, Brooklyn 11201",New York City,Zomato,"302 Atlantic Ave, Brooklyn, NY 11201, USA"
972,Mint Masala,95 Macdougal Street 10012,New York City,Zomato,"95 MacDougal St, New York, NY 10012, USA"
973,Haandi,113 Lexington Avenue 10016,New York City,Zomato,"113 Lexington Ave, New York, NY 10016, USA"
974,Bombay Masala Restaurant,"Times Square, 148 W 49th Street, New York 10019",New York City,Zomato,"148 W 49th St, New York, NY 10019, USA"
975,The Halal Guys,"722 Amsterdam Avenue, New York, NY 10025",New York City,Zomato,"722 Amsterdam Ave, New York, NY 10025, USA"
976,Sheezan Restaurant,"183 Church Street, New York, NY 10007",New York City,Zomato,"183 Church St, New York, NY 10007, USA"
977,Tripoli,"156 Atlantic Avenue, Brooklyn, Cobble Hill, New York City 11201",New York City,Zomato,"156 Atlantic Ave, Brooklyn, NY 11201, USA"
978,Patiala,371 West 34th Street 10001,New York City,Zomato,"371 W 34th St, New York, NY 10001, USA"
979,Tangra Masala,"87-09 Grand Avenue, Queens 11373",New York City,Zomato,"87-09 Grand Ave, Queens, NY 11373, USA"
980,Kabab King,"7301 37th Rd, Jackson Heights 11372",New York City,Zomato,"73-01 37th Rd, Flushing, NY 11372, USA"
981,Salt & Pepper,"139 W 33rd Street, New York 10001",New York City,Zomato,"139 W 33rd St, New York, NY 10001, USA"
982,Fatima's Halal Kitchen,"2525 Broadway, Astoria 11106",New York City,Zomato,"25-25 Broadway, Queens, NY 11106, USA"
983,Curry Hut,"534 9th Avenue, New York, NY",New York City,Zomato,"534 9th Ave, New York, NY 10018, USA"
984,Joy Curry & Tandoor Restaurant,"148 E 46th Street, New York 10017",New York City,Zomato,"148 E 46th St, New York, NY 10017, USA"
985,The Halal Guys,W 53rd Street & 7th Ave New York 10019,New York City,Zomato,"W 53rd St, New York, NY 10019, USA"
986,Kailash Parbat,"99 Lexington Avenue, New York 10016",New York City,Zomato,"99 Lexington Ave, New York, NY 10016, USA"
987,Yemen Café and Restaurant,"176 Atlantic Avenue, Brooklyn 11201",New York City,Zomato,"176 Atlantic Ave, Brooklyn, NY 11201, USA"
988,Pars Grill House & Bar,"249 W 26th Street, New York 10001",New York City,Zomato,"249 W 26th St, New York, NY 10001, USA"
989,Heart of India,"79 2nd Avenue, New York 10003",New York City,Zomato,"79 2nd Ave, New York, NY 10003, USA"
990,Tamba Indian Grill & Bar,"103 Lexington Avenue, New York 10016",New York City,Zomato,"103 Lexington Ave, New York, NY 10016, USA"
991,The Soul Spot,"302 Atlantic Avenue, Brooklyn 11201",New York City,Zomato,"302 Atlantic Ave, Brooklyn, NY 11201, USA"
992,Mint Masala,95 Macdougal Street 10012,New York City,Zomato,"95 MacDougal St, New York, NY 10012, USA"
993,Haandi,113 Lexington Avenue 10016,New York City,Zomato,"113 Lexington Ave, New York, NY 10016, USA"
994,Bombay Masala Restaurant,"Times Square, 148 W 49th Street, New York 10019",New York City,Zomato,"148 W 49th St, New York, NY 10019, USA"
995,The Halal Guys,"722 Amsterdam Avenue, New York, NY 10025",New York City,Zomato,"722 Amsterdam Ave, New York, NY 10025, USA"
996,Sheezan Restaurant,"183 Church Street, New York, NY 10007",New York City,Zomato,"183 Church St, New York, NY 10007, USA"
997,Tripoli,"156 Atlantic Avenue, Brooklyn, Cobble Hill, New York City 11201",New York City,Zomato,"156 Atlantic Ave, Brooklyn, NY 11201, USA"
998,Patiala,371 West 34th Street 10001,New York City,Zomato,"371 W 34th St, New York, NY 10001, USA"
999,Tangra Masala,"87-09 Grand Avenue, Queens 11373",New York City,Zomato,"87-09 Grand Ave, Queens, NY 11373, USA"
1000,Kabab King,"7301 37th Rd, Jackson Heights 11372",New York City,Zomato,"73-01 37th Rd, Flushing, NY 11372, USA"
1001,Salt & Pepper,"139 W 33rd Street, New York 10001",New York City,Zomato,"139 W 33rd St, New York, NY 10001, USA"
1002,Fatima's Halal Kitchen,"2525 Broadway, Astoria 11106",New York City,Zomato,"25-25 Broadway, Queens, NY 11106, USA"
1003,Curry Hut,"534 9th Avenue, New York, NY",New York City,Zomato,"534 9th Ave, New York, NY 10018, USA"
1004,Joy Curry & Tandoor Restaurant,"148 E 46th Street, New York 10017",New York City,Zomato,"148 E 46th St, New York, NY 10017, USA"
1005,The Halal Guys,W 53rd Street & 7th Ave New York 10019,New York City,Zomato,"W 53rd St, New York, NY 10019, USA"
1006,Kailash Parbat,"99 Lexington Avenue, New York 10016",New York City,Zomato,"99 Lexington Ave, New York, NY 10016, USA"
1007,Yemen Café and Restaurant,"176 Atlantic Avenue, Brooklyn 11201",New York City,Zomato,"176 Atlantic Ave, Brooklyn, NY 11201, USA"
1008,Pars Grill House & Bar,"249 W 26th Street, New York 10001",New York City,Zomato,"249 W 26th St, New York, NY 10001, USA"
1009,Heart of India,"79 2nd Avenue, New York 10003",New York City,Zomato,"79 2nd Ave, New York, NY 10003, USA"
1010,Tamba Indian Grill & Bar,"103 Lexington Avenue, New York 10016",New York City,Zomato,"103 Lexington Ave, New York, NY 10016, USA"
1011,The Soul Spot,"302 Atlantic Avenue, Brooklyn 11201",New York City,Zomato,"302 Atlantic Ave, Brooklyn, NY 11201, USA"
1012,Mint Masala,95 Macdougal Street 10012,New York City,Zomato,"95 MacDougal St, New York, NY 10012, USA"
1013,Haandi,113 Lexington Avenue 10016,New York City,Zomato,"113 Lexington Ave, New York, NY 10016, USA"
1014,Bombay Masala Restaurant,"Times Square, 148 W 49th Street, New York 10019",New York City,Zomato,"148 W 49th St, New York, NY 10019, USA"
1015,The Halal Guys,"722 Amsterdam Avenue, New York, NY 10025",New York City,Zomato,"722 Amsterdam Ave, New York, NY 10025, USA"
1016,Sheezan Restaurant,"183 Church Street, New York, NY 10007",New York City,Zomato,"183 Church St, New York, NY 10007, USA"
1017,Tripoli,"156 Atlantic Avenue, Brooklyn, Cobble Hill, New York City 11201",New York City,Zomato,"156 Atlantic Ave, Brooklyn, NY 11201, USA"
1018,Patiala,371 West 34th Street 10001,New York City,Zomato,"371 W 34th St, New York, NY 10001, USA"
1019,Tangra Masala,"87-09 Grand Avenue, Queens 11373",New York City,Zomato,"87-09 Grand Ave, Queens, NY 11373, USA"
1020,Kabab King,"7301 37th Rd, Jackson Heights 11372",New York City,Zomato,"73-01 37th Rd, Flushing, NY 11372, USA"
1021,Salt & Pepper,"139 W 33rd Street, New York 10001",New York City,Zomato,"139 W 33rd St, New York, NY 10001, USA"
1022,Fatima's Halal Kitchen,"2525 Broadway, Astoria 11106",New York City,Zomato,"25-25 Broadway, Queens, NY 11106, USA"
1023,Curry Hut,"534 9th Avenue, New York, NY",New York City,Zomato,"534 9th Ave, New York, NY 10018, USA"
1024,Joy Curry & Tandoor Restaurant,"148 E 46th Street, New York 10017",New York City,Zomato,"148 E 46th St, New York, NY 10017, USA"
1025,The Halal Guys,W 53rd Street & 7th Ave New York 10019,New York City,Zomato,"W 53rd St, New York, NY 10019, USA"
1026,Kailash Parbat,"99 Lexington Avenue, New York 10016",New York City,Zomato,"99 Lexington Ave, New York, NY 10016, USA"
1027,Yemen Café and Restaurant,"176 Atlantic Avenue, Brooklyn 11201",New York City,Zomato,"176 Atlantic Ave, Brooklyn, NY 11201, USA"
1028,Pars Grill House & Bar,"249 W 26th Street, New York 10001",New York City,Zomato,"249 W 26th St, New York, NY 10001, USA"
1029,Heart of India,"79 2nd Avenue, New York 10003",New York City,Zomato,"79 2nd Ave, New York, NY 10003, USA"
1030,Tamba Indian Grill & Bar,"103 Lexington Avenue, New York 10016",New York City,Zomato,"103 Lexington Ave, New York, NY 10016, USA"
1031,The Soul Spot,"302 Atlantic Avenue, Brooklyn 11201",New York City,Zomato,"302 Atlantic Ave, Brooklyn, NY 11201, USA"
1032,Mint Masala,95 Macdougal Street 10012,New York City,Zomato,"95 MacDougal St, New York, NY 10012, USA"
1033,Haandi,113 Lexington Avenue 10016,New York City,Zomato,"113 Lexington Ave, New York, NY 10016, USA"
1034,Bombay Masala Restaurant,"Times Square, 148 W 49th Street, New York 10019",New York City,Zomato,"148 W 49th St, New York, NY 10019, USA"
1035,The Halal Guys,"722 Amsterdam Avenue, New York, NY 10025",New York City,Zomato,"722 Amsterdam Ave, New York, NY 10025, USA"
1036,Sheezan Restaurant,"183 Church Street, New York, NY 10007",New York City,Zomato,"183 Church St, New York, NY 10007, USA"
1037,Tripoli,"156 Atlantic Avenue, Brooklyn, Cobble Hill, New York City 11201",New York City,Zomato,"156 Atlantic Ave, Brooklyn, NY 11201, USA"
1038,Patiala,371 West 34th Street 10001,New York City,Zomato,"371 W 34th St, New York, NY 10001, USA"
1039,Tangra Masala,"87-09 Grand Avenue, Queens 11373",New York City,Zomato,"87-09 Grand Ave, Queens, NY 11373, USA"
1040,Kabab King,"7301 37th Rd, Jackson Heights 11372",New York City,Zomato,"73-01 37th Rd, Flushing, NY 11372, USA"
1041,Salt & Pepper,"139 W 33rd Street, New York 10001",New York City,Zomato,"139 W 33rd St, New York, NY 10001, USA"
1042,Fatima's Halal Kitchen,"2525 Broadway, Astoria 11106",New York City,Zomato,"25-25 Broadway, Queens, NY 11106, USA"
1043,Curry Hut,"534 9th Avenue, New York, NY",New York City,Zomato,"534 9th Ave, New York, NY 10018, USA"
1044,Joy Curry & Tandoor Restaurant,"148 E 46th Street, New York 10017",New York City,Zomato,"148 E 46th St, New York, NY 10017, USA"
1045,The Halal Guys,W 53rd Street & 7th Ave New York 10019,New York City,Zomato,"W 53rd St, New York, NY 10019, USA"
1046,Kailash Parbat,"99 Lexington Avenue, New York 10016",New York City,Zomato,"99 Lexington Ave, New York, NY 10016, USA"
1047,Yemen Café and Restaurant,"176 Atlantic Avenue, Brooklyn 11201",New York City,Zomato,"176 Atlantic Ave, Brooklyn, NY 11201, USA"
1048,Pars Grill House & Bar,"249 W 26th Street, New York 10001",New York City,Zomato,"249 W 26th St, New York, NY 10001, USA"
1049,Heart of India,"79 2nd Avenue, New York 10003",New York City,Zomato,"79 2nd Ave, New York, NY 10003, USA"
1050,Tamba Indian Grill & Bar,"103 Lexington Avenue, New York 10016",New York City,Zomato,"103 Lexington Ave, New York, NY 10016, USA"
1051,The Soul Spot,"302 Atlantic Avenue, Brooklyn 11201",New York City,Zomato,"302 Atlantic Ave, Brooklyn, NY 11201, USA"
1052,Mint Masala,95 Macdougal Street 10012,New York City,Zomato,"95 MacDougal St, New York, NY 10012, USA"
1053,Haandi,113 Lexington Avenue 10016,New York City,Zomato,"113 Lexington Ave, New York, NY 10016, USA"
1054,Bombay Masala Restaurant,"Times Square, 148 W 49th Street, New York 10019",New York City,Zomato,"148 W 49th St, New York, NY 10019, USA"
1055,The Halal Guys,"722 Amsterdam Avenue, New York, NY 10025",New York City,Zomato,"722 Amsterdam Ave, New York, NY 10025, USA"
1056,Sheezan Restaurant,"183 Church Street, New York, NY 10007",New York City,Zomato,"183 Church St, New York, NY 10007, USA"
1057,Tripoli,"156 Atlantic Avenue, Brooklyn, Cobble Hill, New York City 11201",New York City,Zomato,"156 Atlantic Ave, Brooklyn, NY 11201, USA"
1058,Patiala,371 West 34th Street 10001,New York City,Zomato,"371 W 34th St, New York, NY 10001, USA"
1059,Tangra Masala,"87-09 Grand Avenue, Queens 11373",New York City,Zomato,"87-09 Grand Ave, Queens, NY 11373, USA"
1060,Kabab King,"7301 37th Rd, Jackson Heights 11372",New York City,Zomato,"73-01 37th Rd, Flushing, NY 11372, USA"
1061,Salt & Pepper,"139 W 33rd Street, New York 10001",New York City,Zomato,"139 W 33rd St, New York, NY 10001, USA"
1062,Fatima's Halal Kitchen,"2525 Broadway, Astoria 11106",New York City,Zomato,"25-25 Broadway, Queens, NY 11106, USA"
1063,Curry Hut,"534 9th Avenue, New York, NY",New York City,Zomato,"534 9th Ave, New York, NY 10018, USA"
1064,Joy Curry & Tandoor Restaurant,"148 E 46th Street, New York 10017",New York City,Zomato,"148 E 46th St, New York, NY 10017, USA"
1065,The Halal Guys,W 53rd Street & 7th Ave New York 10019,New York City,Zomato,"W 53rd St, New York, NY 10019, USA"
1066,Kailash Parbat,"99 Lexington Avenue, New York 10016",New York City,Zomato,"99 Lexington Ave, New York, NY 10016, USA"
1067,Yemen Café and Restaurant,"176 Atlantic Avenue, Brooklyn 11201",New York City,Zomato,"176 Atlantic Ave, Brooklyn, NY 11201, USA"
1068,Pars Grill House & Bar,"249 W 26th Street, New York 10001",New York City,Zomato,"249 W 26th St, New York, NY 10001, USA"
1069,Heart of India,"79 2nd Avenue, New York 10003",New York City,Zomato,"79 2nd Ave, New York, NY 10003, USA"
1070,Tamba Indian Grill & Bar,"103 Lexington Avenue, New York 10016",New York City,Zomato,"103 Lexington Ave, New York, NY 10016, USA"
1071,The Soul Spot,"302 Atlantic Avenue, Brooklyn 11201",New York City,Zomato,"302 Atlantic Ave, Brooklyn, NY 11201, USA"
1072,Mint Masala,95 Macdougal Street 10012,New York City,Zomato,"95 MacDougal St, New York, NY 10012, USA"
1073,Haandi,113 Lexington Avenue 10016,New York City,Zomato,"113 Lexington Ave, New York, NY 10016, USA"
1074,Bombay Masala Restaurant,"Times Square, 148 W 49th Street, New York 10019",New York City,Zomato,"148 W 49th St, New York, NY 10019, USA"
1075,The Halal Guys,"722 Amsterdam Avenue, New York, NY 10025",New York City,Zomato,"722 Amsterdam Ave, New York, NY 10025, USA"
1076,Sheezan Restaurant,"183 Church Street, New York, NY 10007",New York City,Zomato,"183 Church St, New York, NY 10007, USA"
1077,Tripoli,"156 Atlantic Avenue, Brooklyn, Cobble Hill, New York City 11201",New York City,Zomato,"156 Atlantic Ave, Brooklyn, NY 11201, USA"
1078,Patiala,371 West 34th Street 10001,New York City,Zomato,"371 W 34th St, New York, NY 10001, USA"
1079,Tangra Masala,"87-09 Grand Avenue, Queens 11373",New York City,Zomato,"87-09 Grand Ave, Queens, NY 11373, USA"
1080,Kabab King,"7301 37th Rd, Jackson Heights 11372",New York City,Zomato,"73-01 37th Rd, Flushing, NY 11372, USA"
1081,Salt & Pepper,"139 W 33rd Street, New York 10001",New York City,Zomato,"139 W 33rd St, New York, NY 10001, USA"
1082,Fatima's Halal Kitchen,"2525 Broadway, Astoria 11106",New York City,Zomato,"25-25 Broadway, Queens, NY 11106, USA"
1083,Curry Hut,"534 9th Avenue, New York, NY",New York City,Zomato,"534 9th Ave, New York, NY 10018, USA"
1084,Joy Curry & Tandoor Restaurant,"148 E 46th Street, New York 10017",New York City,Zomato,"148 E 46th St, New York, NY 10017, USA"
